{
  "type": "FeatureCollection",
  "schema_version": "pass9.0",
  "generated_at": "2026-08-30",
  "title": "Authoritative watershed polygon registry",
  "description": "WSC station-basin records for the pass-9 river set. Official packages are identified, but polygon geometry is intentionally null because binary ingestion failed.",
  "features": [
    {
      "type": "Feature",
      "id": "BASIN-NATASHQUAN",
      "geometry": null,
      "properties": {
        "id": "BASIN-NATASHQUAN",
        "name": "Natashquan River / Rivière Natashquan — WSC station basin registry",
        "feature_type": "authoritative_basin_polygon_registry",
        "verification_status": "official_dataset_and_station_metadata_verified_geometry_not_ingested",
        "confidence": "high_for_station_metadata_none_for_uningested_polygon_geometry",
        "source_ids": [
          "SRC-WSC-BASIN-POLYGONS",
          "SRC-WSC-BASIN-DIRECTORY",
          "SRC-WSC-BASIN-NOTICE-2026",
          "SRC-WSC-DRAINAGE-UPDATE-2026",
          "SRC-WSC-STATION-REFERENCE"
        ],
        "last_verified": "2026-08-30",
        "geometry_role": "authoritative_polygon_expected_but_not_ingested",
        "station_number": "02WB003",
        "station_reference_url": "https://wateroffice.ec.gc.ca/station_metadata/reference_index_e.html?stnNum=02WB003",
        "watercourse": "NATASHQUAN (RIVIERE) À 0,6 KM EN AVAL DE LA DÉCHARGE DU LAC ALIESTE",
        "gross_drainage_area_km2": 15400,
        "gross_drainage_area_is_station_metadata": true,
        "polygon_area_computed_km2": null,
        "official_geometry_package": "MDA_ADP_02.zip",
        "official_package_identified": true,
        "geometry_ingested": false,
        "geometry_download_attempt": "failed_in_execution_environment",
        "prerelease_polygon_warning": true,
        "project_site_polygon": false,
        "notes": "No basin boundary was hand-drawn or inferred. Station drainage-area metadata is retained separately from the unavailable polygon geometry."
      }
    },
    {
      "type": "Feature",
      "id": "BASIN-PETIT-MECATINA",
      "geometry": null,
      "properties": {
        "id": "BASIN-PETIT-MECATINA",
        "name": "Petit Mécatina River / Rivière du Petit Mécatina — WSC station basin registry",
        "feature_type": "authoritative_basin_polygon_registry",
        "verification_status": "official_dataset_and_station_metadata_verified_geometry_not_ingested",
        "confidence": "high_for_station_metadata_none_for_uningested_polygon_geometry",
        "source_ids": [
          "SRC-WSC-BASIN-POLYGONS",
          "SRC-WSC-BASIN-DIRECTORY",
          "SRC-WSC-BASIN-NOTICE-2026",
          "SRC-WSC-DRAINAGE-UPDATE-2026",
          "SRC-WSC-STATION-REFERENCE"
        ],
        "last_verified": "2026-08-30",
        "geometry_role": "authoritative_polygon_expected_but_not_ingested",
        "station_number": "02XA006",
        "station_reference_url": "https://wateroffice.ec.gc.ca/station_metadata/reference_index_e.html?stnNum=02XA006",
        "watercourse": "PETIT MECATINA (RIVIERE DU)",
        "gross_drainage_area_km2": 19200,
        "gross_drainage_area_is_station_metadata": true,
        "polygon_area_computed_km2": null,
        "official_geometry_package": "MDA_ADP_02.zip",
        "official_package_identified": true,
        "geometry_ingested": false,
        "geometry_download_attempt": "failed_in_execution_environment",
        "prerelease_polygon_warning": true,
        "project_site_polygon": false,
        "notes": "No basin boundary was hand-drawn or inferred. Station drainage-area metadata is retained separately from the unavailable polygon geometry."
      }
    },
    {
      "type": "Feature",
      "id": "BASIN-SAINT-AUGUSTIN",
      "geometry": null,
      "properties": {
        "id": "BASIN-SAINT-AUGUSTIN",
        "name": "Saint-Augustin River / Rivière Saint-Augustin — WSC station basin registry",
        "feature_type": "authoritative_basin_polygon_registry",
        "verification_status": "official_dataset_and_station_metadata_verified_geometry_not_ingested",
        "confidence": "high_for_station_metadata_none_for_uningested_polygon_geometry",
        "source_ids": [
          "SRC-WSC-BASIN-POLYGONS",
          "SRC-WSC-BASIN-DIRECTORY",
          "SRC-WSC-BASIN-NOTICE-2026",
          "SRC-WSC-DRAINAGE-UPDATE-2026",
          "SRC-WSC-STATION-REFERENCE"
        ],
        "last_verified": "2026-08-30",
        "geometry_role": "authoritative_polygon_expected_but_not_ingested",
        "station_number": "02XB001",
        "station_reference_url": "https://wateroffice.ec.gc.ca/station_metadata/reference_index_e.html?stnNum=02XB001",
        "watercourse": "SAINT-AUGUSTIN (RIVIERE) EN AVAL DE LA RIVIERE A LAMOUCHE",
        "gross_drainage_area_km2": 5770,
        "gross_drainage_area_is_station_metadata": true,
        "polygon_area_computed_km2": null,
        "official_geometry_package": "MDA_ADP_02.zip",
        "official_package_identified": true,
        "geometry_ingested": false,
        "geometry_download_attempt": "failed_in_execution_environment",
        "prerelease_polygon_warning": true,
        "project_site_polygon": false,
        "notes": "No basin boundary was hand-drawn or inferred. Station drainage-area metadata is retained separately from the unavailable polygon geometry."
      }
    },
    {
      "type": "Feature",
      "id": "BASIN-SAINT-PAUL",
      "geometry": null,
      "properties": {
        "id": "BASIN-SAINT-PAUL",
        "name": "Saint-Paul River / Rivière Saint-Paul — WSC station basin registry",
        "feature_type": "authoritative_basin_polygon_registry",
        "verification_status": "official_dataset_and_station_metadata_verified_geometry_not_ingested",
        "confidence": "high_for_station_metadata_none_for_uningested_polygon_geometry",
        "source_ids": [
          "SRC-WSC-BASIN-POLYGONS",
          "SRC-WSC-BASIN-DIRECTORY",
          "SRC-WSC-BASIN-NOTICE-2026",
          "SRC-WSC-DRAINAGE-UPDATE-2026",
          "SRC-WSC-STATION-REFERENCE"
        ],
        "last_verified": "2026-08-30",
        "geometry_role": "authoritative_polygon_expected_but_not_ingested",
        "station_number": "02XC001",
        "station_reference_url": "https://wateroffice.ec.gc.ca/station_metadata/reference_index_e.html?stnNum=02XC001",
        "watercourse": "SAINT-PAUL (RIVIERE) À 0,5 KM DU RUISSEAU CHANION",
        "gross_drainage_area_km2": 5510,
        "gross_drainage_area_is_station_metadata": true,
        "polygon_area_computed_km2": null,
        "official_geometry_package": "MDA_ADP_02.zip",
        "official_package_identified": true,
        "geometry_ingested": false,
        "geometry_download_attempt": "failed_in_execution_environment",
        "prerelease_polygon_warning": true,
        "project_site_polygon": false,
        "notes": "No basin boundary was hand-drawn or inferred. Station drainage-area metadata is retained separately from the unavailable polygon geometry."
      }
    },
    {
      "type": "Feature",
      "id": "BASIN-ETAMAMIOU",
      "geometry": null,
      "properties": {
        "id": "BASIN-ETAMAMIOU",
        "name": "Etamamiou River / Rivière Etamamiou — WSC station basin registry",
        "feature_type": "authoritative_basin_polygon_registry",
        "verification_status": "official_dataset_and_station_metadata_verified_geometry_not_ingested",
        "confidence": "high_for_station_metadata_none_for_uningested_polygon_geometry",
        "source_ids": [
          "SRC-WSC-BASIN-POLYGONS",
          "SRC-WSC-BASIN-DIRECTORY",
          "SRC-WSC-BASIN-NOTICE-2026",
          "SRC-WSC-DRAINAGE-UPDATE-2026",
          "SRC-WSC-STATION-REFERENCE"
        ],
        "last_verified": "2026-08-30",
        "geometry_role": "authoritative_polygon_expected_but_not_ingested",
        "station_number": "02WC001",
        "station_reference_url": "https://wateroffice.ec.gc.ca/station_metadata/reference_index_e.html?stnNum=02WC001",
        "watercourse": "ETAMAMIOU (RIVIERE) PRES DE L'EMBOUCHURE",
        "gross_drainage_area_km2": 2930,
        "gross_drainage_area_is_station_metadata": true,
        "polygon_area_computed_km2": null,
        "official_geometry_package": "MDA_ADP_02.zip",
        "official_package_identified": true,
        "geometry_ingested": false,
        "geometry_download_attempt": "failed_in_execution_environment",
        "prerelease_polygon_warning": true,
        "project_site_polygon": false,
        "notes": "No basin boundary was hand-drawn or inferred. Station drainage-area metadata is retained separately from the unavailable polygon geometry."
      }
    },
    {
      "type": "Feature",
      "id": "BASIN-OLOMANE",
      "geometry": null,
      "properties": {
        "id": "BASIN-OLOMANE",
        "name": "Olomane River / Rivière Olomane — WSC station basin registry",
        "feature_type": "authoritative_basin_polygon_registry",
        "verification_status": "official_dataset_and_station_metadata_verified_geometry_not_ingested",
        "confidence": "high_for_station_metadata_none_for_uningested_polygon_geometry",
        "source_ids": [
          "SRC-WSC-BASIN-POLYGONS",
          "SRC-WSC-BASIN-DIRECTORY",
          "SRC-WSC-BASIN-NOTICE-2026",
          "SRC-WSC-DRAINAGE-UPDATE-2026",
          "SRC-WSC-STATION-REFERENCE"
        ],
        "last_verified": "2026-08-30",
        "geometry_role": "authoritative_polygon_expected_but_not_ingested",
        "station_number": "02WC002",
        "station_reference_url": "https://wateroffice.ec.gc.ca/station_metadata/reference_index_e.html?stnNum=02WC002",
        "watercourse": "OLOMAN (RIVIERE) EN AVAL DE LA RIVIERE WABOUCHAGAMOU",
        "gross_drainage_area_km2": 5250,
        "gross_drainage_area_is_station_metadata": true,
        "polygon_area_computed_km2": null,
        "official_geometry_package": "MDA_ADP_02.zip",
        "official_package_identified": true,
        "geometry_ingested": false,
        "geometry_download_attempt": "failed_in_execution_environment",
        "prerelease_polygon_warning": true,
        "project_site_polygon": false,
        "notes": "No basin boundary was hand-drawn or inferred. Station drainage-area metadata is retained separately from the unavailable polygon geometry."
      }
    },
    {
      "type": "Feature",
      "id": "BASIN-AGUANUS",
      "geometry": null,
      "properties": {
        "id": "BASIN-AGUANUS",
        "name": "Aguanus River / Rivière Aguanus — WSC station basin registry",
        "feature_type": "authoritative_basin_polygon_registry",
        "verification_status": "official_dataset_and_station_metadata_verified_geometry_not_ingested",
        "confidence": "high_for_station_metadata_none_for_uningested_polygon_geometry",
        "source_ids": [
          "SRC-WSC-BASIN-POLYGONS",
          "SRC-WSC-BASIN-DIRECTORY",
          "SRC-WSC-BASIN-NOTICE-2026",
          "SRC-WSC-DRAINAGE-UPDATE-2026",
          "SRC-WSC-STATION-REFERENCE"
        ],
        "last_verified": "2026-08-30",
        "geometry_role": "authoritative_polygon_expected_but_not_ingested",
        "station_number": "02WA002",
        "station_reference_url": "https://wateroffice.ec.gc.ca/station_metadata/reference_index_e.html?stnNum=02WA002",
        "watercourse": "AGUANUS (RIVIERE) EN AMONT DE LA RIVIERE DANY",
        "gross_drainage_area_km2": 5610,
        "gross_drainage_area_is_station_metadata": true,
        "polygon_area_computed_km2": null,
        "official_geometry_package": "MDA_ADP_02.zip",
        "official_package_identified": true,
        "geometry_ingested": false,
        "geometry_download_attempt": "failed_in_execution_environment",
        "prerelease_polygon_warning": true,
        "project_site_polygon": false,
        "notes": "No basin boundary was hand-drawn or inferred. Station drainage-area metadata is retained separately from the unavailable polygon geometry."
      }
    },
    {
      "type": "Feature",
      "id": "BASIN-NABISIPI",
      "geometry": null,
      "properties": {
        "id": "BASIN-NABISIPI",
        "name": "Nabisipi River / Rivière Nabisipi — WSC station basin registry",
        "feature_type": "authoritative_basin_polygon_registry",
        "verification_status": "official_dataset_and_station_metadata_verified_geometry_not_ingested",
        "confidence": "high_for_station_metadata_none_for_uningested_polygon_geometry",
        "source_ids": [
          "SRC-WSC-BASIN-POLYGONS",
          "SRC-WSC-BASIN-DIRECTORY",
          "SRC-WSC-BASIN-NOTICE-2026",
          "SRC-WSC-DRAINAGE-UPDATE-2026",
          "SRC-WSC-STATION-REFERENCE"
        ],
        "last_verified": "2026-08-30",
        "geometry_role": "authoritative_polygon_expected_but_not_ingested",
        "station_number": "02WA001",
        "station_reference_url": "https://wateroffice.ec.gc.ca/station_metadata/reference_index_e.html?stnNum=02WA001",
        "watercourse": "NABISIPI (RIVIERE) A 2.4 KM DE L'EMBOUCHURE",
        "gross_drainage_area_km2": 2100,
        "gross_drainage_area_is_station_metadata": true,
        "polygon_area_computed_km2": null,
        "official_geometry_package": "MDA_ADP_02.zip",
        "official_package_identified": true,
        "geometry_ingested": false,
        "geometry_download_attempt": "failed_in_execution_environment",
        "prerelease_polygon_warning": true,
        "project_site_polygon": false,
        "notes": "No basin boundary was hand-drawn or inferred. Station drainage-area metadata is retained separately from the unavailable polygon geometry."
      }
    },
    {
      "type": "Feature",
      "id": "BASIN-MAGPIE",
      "geometry": null,
      "properties": {
        "id": "BASIN-MAGPIE",
        "name": "Magpie River / Rivière Magpie — WSC station basin registry",
        "feature_type": "authoritative_basin_polygon_registry",
        "verification_status": "official_dataset_and_station_metadata_verified_geometry_not_ingested",
        "confidence": "high_for_station_metadata_none_for_uningested_polygon_geometry",
        "source_ids": [
          "SRC-WSC-BASIN-POLYGONS",
          "SRC-WSC-BASIN-DIRECTORY",
          "SRC-WSC-BASIN-NOTICE-2026",
          "SRC-WSC-DRAINAGE-UPDATE-2026",
          "SRC-WSC-STATION-REFERENCE"
        ],
        "last_verified": "2026-08-30",
        "geometry_role": "authoritative_polygon_expected_but_not_ingested",
        "station_number": "02VB003",
        "station_reference_url": "https://wateroffice.ec.gc.ca/station_metadata/reference_index_e.html?stnNum=02VB003",
        "watercourse": "MAGPIE (RIVIERE)",
        "gross_drainage_area_km2": 7570,
        "gross_drainage_area_is_station_metadata": true,
        "polygon_area_computed_km2": null,
        "official_geometry_package": "MDA_ADP_02.zip",
        "official_package_identified": true,
        "geometry_ingested": false,
        "geometry_download_attempt": "failed_in_execution_environment",
        "prerelease_polygon_warning": true,
        "project_site_polygon": false,
        "notes": "No basin boundary was hand-drawn or inferred. Station drainage-area metadata is retained separately from the unavailable polygon geometry."
      }
    },
    {
      "type": "Feature",
      "id": "BASIN-ROMAINE",
      "geometry": null,
      "properties": {
        "id": "BASIN-ROMAINE",
        "name": "Romaine River / Rivière Romaine — WSC station basin registry",
        "feature_type": "authoritative_basin_polygon_registry",
        "verification_status": "official_dataset_and_station_metadata_verified_geometry_not_ingested",
        "confidence": "high_for_station_metadata_none_for_uningested_polygon_geometry",
        "source_ids": [
          "SRC-WSC-BASIN-POLYGONS",
          "SRC-WSC-BASIN-DIRECTORY",
          "SRC-WSC-BASIN-NOTICE-2026",
          "SRC-WSC-DRAINAGE-UPDATE-2026",
          "SRC-WSC-STATION-REFERENCE"
        ],
        "last_verified": "2026-08-30",
        "geometry_role": "authoritative_polygon_expected_but_not_ingested",
        "station_number": "02VC002",
        "station_reference_url": "https://wateroffice.ec.gc.ca/station_metadata/reference_index_e.html?stnNum=02VC002",
        "watercourse": "ROMAINE (RIVIERE) EN AVAL DE LA RIVIERE AUX SAUTERELLES",
        "gross_drainage_area_km2": 6700,
        "gross_drainage_area_is_station_metadata": true,
        "polygon_area_computed_km2": null,
        "official_geometry_package": "MDA_ADP_02.zip",
        "official_package_identified": true,
        "geometry_ingested": false,
        "geometry_download_attempt": "failed_in_execution_environment",
        "prerelease_polygon_warning": true,
        "project_site_polygon": false,
        "notes": "No basin boundary was hand-drawn or inferred. Station drainage-area metadata is retained separately from the unavailable polygon geometry."
      }
    },
    {
      "type": "Feature",
      "id": "BASIN-NASTAPOKA",
      "geometry": null,
      "properties": {
        "id": "BASIN-NASTAPOKA",
        "name": "Nastapoka River / Rivière Nastapoka — WSC station basin registry",
        "feature_type": "authoritative_basin_polygon_registry",
        "verification_status": "official_dataset_and_station_metadata_verified_geometry_not_ingested",
        "confidence": "high_for_station_metadata_none_for_uningested_polygon_geometry",
        "source_ids": [
          "SRC-WSC-BASIN-POLYGONS",
          "SRC-WSC-BASIN-DIRECTORY",
          "SRC-WSC-BASIN-NOTICE-2026",
          "SRC-WSC-DRAINAGE-UPDATE-2026",
          "SRC-WSC-STATION-REFERENCE"
        ],
        "last_verified": "2026-08-30",
        "geometry_role": "authoritative_polygon_expected_but_not_ingested",
        "station_number": "03FA002",
        "station_reference_url": "https://wateroffice.ec.gc.ca/station_metadata/reference_index_e.html?stnNum=03FA002",
        "watercourse": "NASTAPOCA (RIVIERE) PRES DE L'EMBOUCHURE",
        "gross_drainage_area_km2": 13000,
        "gross_drainage_area_is_station_metadata": true,
        "polygon_area_computed_km2": null,
        "official_geometry_package": "MDA_ADP_03.zip",
        "official_package_identified": true,
        "geometry_ingested": false,
        "geometry_download_attempt": "failed_in_execution_environment",
        "prerelease_polygon_warning": true,
        "project_site_polygon": false,
        "notes": "No basin boundary was hand-drawn or inferred. Station drainage-area metadata is retained separately from the unavailable polygon geometry."
      }
    },
    {
      "type": "Feature",
      "id": "BASIN-INNUKSUAC",
      "geometry": null,
      "properties": {
        "id": "BASIN-INNUKSUAC",
        "name": "Innuksuac River / Rivière Innuksuac — WSC station basin registry",
        "feature_type": "authoritative_basin_polygon_registry",
        "verification_status": "official_dataset_and_station_metadata_verified_geometry_not_ingested",
        "confidence": "high_for_station_metadata_none_for_uningested_polygon_geometry",
        "source_ids": [
          "SRC-WSC-BASIN-POLYGONS",
          "SRC-WSC-BASIN-DIRECTORY",
          "SRC-WSC-BASIN-NOTICE-2026",
          "SRC-WSC-DRAINAGE-UPDATE-2026",
          "SRC-WSC-STATION-REFERENCE"
        ],
        "last_verified": "2026-08-30",
        "geometry_role": "authoritative_polygon_expected_but_not_ingested",
        "station_number": "03GB001",
        "station_reference_url": "https://wateroffice.ec.gc.ca/station_metadata/reference_index_e.html?stnNum=03GB001",
        "watercourse": "INNUKSUAC (RIVIERE) PRES DE L'EMBOUCHURE",
        "gross_drainage_area_km2": 11500,
        "gross_drainage_area_is_station_metadata": true,
        "polygon_area_computed_km2": null,
        "official_geometry_package": "MDA_ADP_03.zip",
        "official_package_identified": true,
        "geometry_ingested": false,
        "geometry_download_attempt": "failed_in_execution_environment",
        "prerelease_polygon_warning": true,
        "project_site_polygon": false,
        "notes": "No basin boundary was hand-drawn or inferred. Station drainage-area metadata is retained separately from the unavailable polygon geometry."
      }
    },
    {
      "type": "Feature",
      "id": "BASIN-KOGALUC",
      "geometry": null,
      "properties": {
        "id": "BASIN-KOGALUC",
        "name": "Kogaluc River / Rivière Kogaluc — WSC station basin registry",
        "feature_type": "authoritative_basin_polygon_registry",
        "verification_status": "official_dataset_and_station_metadata_verified_geometry_not_ingested",
        "confidence": "high_for_station_metadata_none_for_uningested_polygon_geometry",
        "source_ids": [
          "SRC-WSC-BASIN-POLYGONS",
          "SRC-WSC-BASIN-DIRECTORY",
          "SRC-WSC-BASIN-NOTICE-2026",
          "SRC-WSC-DRAINAGE-UPDATE-2026",
          "SRC-WSC-STATION-REFERENCE"
        ],
        "last_verified": "2026-08-30",
        "geometry_role": "authoritative_polygon_expected_but_not_ingested",
        "station_number": "03GC001",
        "station_reference_url": "https://wateroffice.ec.gc.ca/station_metadata/reference_index_e.html?stnNum=03GC001",
        "watercourse": "KOGALUC (RIVIERE) PRES DE L'EMBOUCHURE",
        "gross_drainage_area_km2": 12200,
        "gross_drainage_area_is_station_metadata": true,
        "polygon_area_computed_km2": null,
        "official_geometry_package": "MDA_ADP_03.zip",
        "official_package_identified": true,
        "geometry_ingested": false,
        "geometry_download_attempt": "failed_in_execution_environment",
        "prerelease_polygon_warning": true,
        "project_site_polygon": false,
        "notes": "No basin boundary was hand-drawn or inferred. Station drainage-area metadata is retained separately from the unavailable polygon geometry."
      }
    },
    {
      "type": "Feature",
      "id": "BASIN-ARNAUD",
      "geometry": null,
      "properties": {
        "id": "BASIN-ARNAUD",
        "name": "Arnaud River / Rivière Arnaud (Payne) — WSC station basin registry",
        "feature_type": "authoritative_basin_polygon_registry",
        "verification_status": "official_dataset_and_station_metadata_verified_geometry_not_ingested",
        "confidence": "high_for_station_metadata_none_for_uningested_polygon_geometry",
        "source_ids": [
          "SRC-WSC-BASIN-POLYGONS",
          "SRC-WSC-BASIN-DIRECTORY",
          "SRC-WSC-BASIN-NOTICE-2026",
          "SRC-WSC-DRAINAGE-UPDATE-2026",
          "SRC-WSC-STATION-REFERENCE"
        ],
        "last_verified": "2026-08-30",
        "geometry_role": "authoritative_polygon_expected_but_not_ingested",
        "station_number": "03HA003",
        "station_reference_url": "https://wateroffice.ec.gc.ca/station_metadata/reference_index_e.html?stnNum=03HA003",
        "watercourse": "ARNAUD (PAYNE)(RIVIERE) EN AVAL DE LA RIVIERE VACHON-2",
        "gross_drainage_area_km2": 42200,
        "gross_drainage_area_is_station_metadata": true,
        "polygon_area_computed_km2": null,
        "official_geometry_package": "MDA_ADP_03.zip",
        "official_package_identified": true,
        "geometry_ingested": false,
        "geometry_download_attempt": "failed_in_execution_environment",
        "prerelease_polygon_warning": true,
        "project_site_polygon": false,
        "notes": "No basin boundary was hand-drawn or inferred. Station drainage-area metadata is retained separately from the unavailable polygon geometry."
      }
    },
    {
      "type": "Feature",
      "id": "BASIN-LEAF",
      "geometry": null,
      "properties": {
        "id": "BASIN-LEAF",
        "name": "Leaf River / Rivière aux Feuilles — WSC station basin registry",
        "feature_type": "authoritative_basin_polygon_registry",
        "verification_status": "official_dataset_and_station_metadata_verified_geometry_not_ingested",
        "confidence": "high_for_station_metadata_none_for_uningested_polygon_geometry",
        "source_ids": [
          "SRC-WSC-BASIN-POLYGONS",
          "SRC-WSC-BASIN-DIRECTORY",
          "SRC-WSC-BASIN-NOTICE-2026",
          "SRC-WSC-DRAINAGE-UPDATE-2026",
          "SRC-WSC-STATION-REFERENCE"
        ],
        "last_verified": "2026-08-30",
        "geometry_role": "authoritative_polygon_expected_but_not_ingested",
        "station_number": "03JB001",
        "station_reference_url": "https://wateroffice.ec.gc.ca/station_metadata/reference_index_e.html?stnNum=03JB001",
        "watercourse": "FEUILLES (RIVIERE AUX) EN AVAL DE LA RIVIERE PELADEAU",
        "gross_drainage_area_km2": 40200,
        "gross_drainage_area_is_station_metadata": true,
        "polygon_area_computed_km2": null,
        "official_geometry_package": "MDA_ADP_03.zip",
        "official_package_identified": true,
        "geometry_ingested": false,
        "geometry_download_attempt": "failed_in_execution_environment",
        "prerelease_polygon_warning": true,
        "project_site_polygon": false,
        "notes": "No basin boundary was hand-drawn or inferred. Station drainage-area metadata is retained separately from the unavailable polygon geometry."
      }
    },
    {
      "type": "Feature",
      "id": "BASIN-AUX-MELEZES",
      "geometry": null,
      "properties": {
        "id": "BASIN-AUX-MELEZES",
        "name": "Aux Mélèzes River / Rivière aux Mélèzes — WSC station basin registry",
        "feature_type": "authoritative_basin_polygon_registry",
        "verification_status": "official_dataset_and_station_metadata_verified_geometry_not_ingested",
        "confidence": "high_for_station_metadata_none_for_uningested_polygon_geometry",
        "source_ids": [
          "SRC-WSC-BASIN-POLYGONS",
          "SRC-WSC-BASIN-DIRECTORY",
          "SRC-WSC-BASIN-NOTICE-2026",
          "SRC-WSC-DRAINAGE-UPDATE-2026",
          "SRC-WSC-STATION-REFERENCE"
        ],
        "last_verified": "2026-08-30",
        "geometry_role": "authoritative_polygon_expected_but_not_ingested",
        "station_number": "03KC004",
        "station_reference_url": "https://wateroffice.ec.gc.ca/station_metadata/reference_index_e.html?stnNum=03KC004",
        "watercourse": "MELEZES (RIVIERE AUX) À 7,6 KM EN AMONT DE LA CONFLUENCE AVEC LA KOKSOAK",
        "gross_drainage_area_km2": 41200,
        "gross_drainage_area_is_station_metadata": true,
        "polygon_area_computed_km2": null,
        "official_geometry_package": "MDA_ADP_03.zip",
        "official_package_identified": true,
        "geometry_ingested": false,
        "geometry_download_attempt": "failed_in_execution_environment",
        "prerelease_polygon_warning": true,
        "project_site_polygon": false,
        "notes": "No basin boundary was hand-drawn or inferred. Station drainage-area metadata is retained separately from the unavailable polygon geometry."
      }
    },
    {
      "type": "Feature",
      "id": "BASIN-GREAT-WHALE",
      "geometry": null,
      "properties": {
        "id": "BASIN-GREAT-WHALE",
        "name": "Great Whale River / Grande rivière de la Baleine — WSC station basin registry",
        "feature_type": "authoritative_basin_polygon_registry",
        "verification_status": "official_dataset_and_station_metadata_verified_geometry_not_ingested",
        "confidence": "high_for_station_metadata_none_for_uningested_polygon_geometry",
        "source_ids": [
          "SRC-WSC-BASIN-POLYGONS",
          "SRC-WSC-BASIN-DIRECTORY",
          "SRC-WSC-BASIN-NOTICE-2026",
          "SRC-WSC-DRAINAGE-UPDATE-2026",
          "SRC-WSC-STATION-REFERENCE"
        ],
        "last_verified": "2026-08-30",
        "geometry_role": "authoritative_polygon_expected_but_not_ingested",
        "station_number": "03MB002",
        "station_reference_url": "https://wateroffice.ec.gc.ca/station_metadata/reference_index_e.html?stnNum=03MB002",
        "watercourse": "BALEINE (RIVIERE A LA) À 40,2 KM DE L'EMBOUCHURE",
        "gross_drainage_area_km2": 29700,
        "gross_drainage_area_is_station_metadata": true,
        "polygon_area_computed_km2": null,
        "official_geometry_package": "MDA_ADP_03.zip",
        "official_package_identified": true,
        "geometry_ingested": false,
        "geometry_download_attempt": "failed_in_execution_environment",
        "prerelease_polygon_warning": true,
        "project_site_polygon": false,
        "notes": "No basin boundary was hand-drawn or inferred. Station drainage-area metadata is retained separately from the unavailable polygon geometry."
      }
    },
    {
      "type": "Feature",
      "id": "BASIN-GEORGE",
      "geometry": null,
      "properties": {
        "id": "BASIN-GEORGE",
        "name": "George River / Rivière George — WSC station basin registry",
        "feature_type": "authoritative_basin_polygon_registry",
        "verification_status": "official_dataset_and_station_metadata_verified_geometry_not_ingested",
        "confidence": "high_for_station_metadata_none_for_uningested_polygon_geometry",
        "source_ids": [
          "SRC-WSC-BASIN-POLYGONS",
          "SRC-WSC-BASIN-DIRECTORY",
          "SRC-WSC-BASIN-NOTICE-2026",
          "SRC-WSC-DRAINAGE-UPDATE-2026",
          "SRC-WSC-STATION-REFERENCE"
        ],
        "last_verified": "2026-08-30",
        "geometry_role": "authoritative_polygon_expected_but_not_ingested",
        "station_number": "03ME002",
        "station_reference_url": "https://wateroffice.ec.gc.ca/station_metadata/reference_index_e.html?stnNum=03ME002",
        "watercourse": "GEORGE (RIVIERE) AUX CHUTES HELEN",
        "gross_drainage_area_km2": 35200,
        "gross_drainage_area_is_station_metadata": true,
        "polygon_area_computed_km2": null,
        "official_geometry_package": "MDA_ADP_03.zip",
        "official_package_identified": true,
        "geometry_ingested": false,
        "geometry_download_attempt": "failed_in_execution_environment",
        "prerelease_polygon_warning": true,
        "project_site_polygon": false,
        "notes": "No basin boundary was hand-drawn or inferred. Station drainage-area metadata is retained separately from the unavailable polygon geometry."
      }
    },
    {
      "type": "Feature",
      "id": "BASIN-UGJOKTOK",
      "geometry": null,
      "properties": {
        "id": "BASIN-UGJOKTOK",
        "name": "Ugjoktok River — WSC station basin registry",
        "feature_type": "authoritative_basin_polygon_registry",
        "verification_status": "official_dataset_and_station_metadata_verified_geometry_not_ingested",
        "confidence": "high_for_station_metadata_none_for_uningested_polygon_geometry",
        "source_ids": [
          "SRC-WSC-BASIN-POLYGONS",
          "SRC-WSC-BASIN-DIRECTORY",
          "SRC-WSC-BASIN-NOTICE-2026",
          "SRC-WSC-DRAINAGE-UPDATE-2026",
          "SRC-WSC-STATION-REFERENCE"
        ],
        "last_verified": "2026-08-30",
        "geometry_role": "authoritative_polygon_expected_but_not_ingested",
        "station_number": "03NF001",
        "station_reference_url": "https://wateroffice.ec.gc.ca/station_metadata/reference_index_e.html?stnNum=03NF001",
        "watercourse": "UGJOKTOK RIVER BELOW HARP LAKE",
        "gross_drainage_area_km2": 7550,
        "gross_drainage_area_is_station_metadata": true,
        "polygon_area_computed_km2": null,
        "official_geometry_package": "MDA_ADP_03.zip",
        "official_package_identified": true,
        "geometry_ingested": false,
        "geometry_download_attempt": "failed_in_execution_environment",
        "prerelease_polygon_warning": true,
        "project_site_polygon": false,
        "notes": "No basin boundary was hand-drawn or inferred. Station drainage-area metadata is retained separately from the unavailable polygon geometry."
      }
    },
    {
      "type": "Feature",
      "id": "BASIN-KANAIRIKTOK",
      "geometry": null,
      "properties": {
        "id": "BASIN-KANAIRIKTOK",
        "name": "Kanairiktok River — WSC station basin registry",
        "feature_type": "authoritative_basin_polygon_registry",
        "verification_status": "official_dataset_and_station_metadata_verified_geometry_not_ingested",
        "confidence": "high_for_station_metadata_none_for_uningested_polygon_geometry",
        "source_ids": [
          "SRC-WSC-BASIN-POLYGONS",
          "SRC-WSC-BASIN-DIRECTORY",
          "SRC-WSC-BASIN-NOTICE-2026",
          "SRC-WSC-DRAINAGE-UPDATE-2026",
          "SRC-WSC-STATION-REFERENCE"
        ],
        "last_verified": "2026-08-30",
        "geometry_role": "authoritative_polygon_expected_but_not_ingested",
        "station_number": "03NG001",
        "station_reference_url": "https://wateroffice.ec.gc.ca/station_metadata/reference_index_e.html?stnNum=03NG001",
        "watercourse": "KANAIRIKTOK RIVER BELOW SNEGAMOOK LAKE",
        "gross_drainage_area_km2": 8910,
        "gross_drainage_area_is_station_metadata": true,
        "polygon_area_computed_km2": null,
        "official_geometry_package": "MDA_ADP_03.zip",
        "official_package_identified": true,
        "geometry_ingested": false,
        "geometry_download_attempt": "failed_in_execution_environment",
        "prerelease_polygon_warning": true,
        "project_site_polygon": false,
        "notes": "No basin boundary was hand-drawn or inferred. Station drainage-area metadata is retained separately from the unavailable polygon geometry."
      }
    },
    {
      "type": "Feature",
      "id": "BASIN-NASKAUPI",
      "geometry": null,
      "properties": {
        "id": "BASIN-NASKAUPI",
        "name": "Naskaupi River — WSC station basin registry",
        "feature_type": "authoritative_basin_polygon_registry",
        "verification_status": "official_dataset_and_station_metadata_verified_geometry_not_ingested",
        "confidence": "high_for_station_metadata_none_for_uningested_polygon_geometry",
        "source_ids": [
          "SRC-WSC-BASIN-POLYGONS",
          "SRC-WSC-BASIN-DIRECTORY",
          "SRC-WSC-BASIN-NOTICE-2026",
          "SRC-WSC-DRAINAGE-UPDATE-2026",
          "SRC-WSC-STATION-REFERENCE"
        ],
        "last_verified": "2026-08-30",
        "geometry_role": "authoritative_polygon_expected_but_not_ingested",
        "station_number": "03PB002",
        "station_reference_url": "https://wateroffice.ec.gc.ca/station_metadata/reference_index_e.html?stnNum=03PB002",
        "watercourse": "NASKAUPI RIVER BELOW NASKAUPI LAKE",
        "gross_drainage_area_km2": 4300,
        "gross_drainage_area_is_station_metadata": true,
        "polygon_area_computed_km2": null,
        "official_geometry_package": "MDA_ADP_03.zip",
        "official_package_identified": true,
        "geometry_ingested": false,
        "geometry_download_attempt": "failed_in_execution_environment",
        "prerelease_polygon_warning": true,
        "project_site_polygon": false,
        "notes": "No basin boundary was hand-drawn or inferred. Station drainage-area metadata is retained separately from the unavailable polygon geometry."
      }
    },
    {
      "type": "Feature",
      "id": "BASIN-MINIPI",
      "geometry": null,
      "properties": {
        "id": "BASIN-MINIPI",
        "name": "Minipi River — WSC station basin registry",
        "feature_type": "authoritative_basin_polygon_registry",
        "verification_status": "official_dataset_and_station_metadata_verified_geometry_not_ingested",
        "confidence": "high_for_station_metadata_none_for_uningested_polygon_geometry",
        "source_ids": [
          "SRC-WSC-BASIN-POLYGONS",
          "SRC-WSC-BASIN-DIRECTORY",
          "SRC-WSC-BASIN-NOTICE-2026",
          "SRC-WSC-DRAINAGE-UPDATE-2026",
          "SRC-WSC-STATION-REFERENCE"
        ],
        "last_verified": "2026-08-30",
        "geometry_role": "authoritative_polygon_expected_but_not_ingested",
        "station_number": "03OE002",
        "station_reference_url": "https://wateroffice.ec.gc.ca/station_metadata/reference_index_e.html?stnNum=03OE002",
        "watercourse": "MINIPI RIVER NEAR MINIPI LAKE",
        "gross_drainage_area_km2": 2330,
        "gross_drainage_area_is_station_metadata": true,
        "polygon_area_computed_km2": null,
        "official_geometry_package": "MDA_ADP_03.zip",
        "official_package_identified": true,
        "geometry_ingested": false,
        "geometry_download_attempt": "failed_in_execution_environment",
        "prerelease_polygon_warning": true,
        "project_site_polygon": false,
        "notes": "No basin boundary was hand-drawn or inferred. Station drainage-area metadata is retained separately from the unavailable polygon geometry."
      }
    },
    {
      "type": "Feature",
      "id": "BASIN-EAGLE",
      "geometry": null,
      "properties": {
        "id": "BASIN-EAGLE",
        "name": "Eagle River — WSC station basin registry",
        "feature_type": "authoritative_basin_polygon_registry",
        "verification_status": "official_dataset_and_station_metadata_verified_geometry_not_ingested",
        "confidence": "high_for_station_metadata_none_for_uningested_polygon_geometry",
        "source_ids": [
          "SRC-WSC-BASIN-POLYGONS",
          "SRC-WSC-BASIN-DIRECTORY",
          "SRC-WSC-BASIN-NOTICE-2026",
          "SRC-WSC-DRAINAGE-UPDATE-2026",
          "SRC-WSC-STATION-REFERENCE"
        ],
        "last_verified": "2026-08-30",
        "geometry_role": "authoritative_polygon_expected_but_not_ingested",
        "station_number": "03QC001",
        "station_reference_url": "https://wateroffice.ec.gc.ca/station_metadata/reference_index_e.html?stnNum=03QC001",
        "watercourse": "EAGLE RIVER ABOVE FALLS",
        "gross_drainage_area_km2": 10800,
        "gross_drainage_area_is_station_metadata": true,
        "polygon_area_computed_km2": null,
        "official_geometry_package": "MDA_ADP_03.zip",
        "official_package_identified": true,
        "geometry_ingested": false,
        "geometry_download_attempt": "failed_in_execution_environment",
        "prerelease_polygon_warning": true,
        "project_site_polygon": false,
        "notes": "No basin boundary was hand-drawn or inferred. Station drainage-area metadata is retained separately from the unavailable polygon geometry."
      }
    },
    {
      "type": "Feature",
      "id": "BASIN-ALEXIS",
      "geometry": null,
      "properties": {
        "id": "BASIN-ALEXIS",
        "name": "Alexis River — WSC station basin registry",
        "feature_type": "authoritative_basin_polygon_registry",
        "verification_status": "official_dataset_and_station_metadata_verified_geometry_not_ingested",
        "confidence": "high_for_station_metadata_none_for_uningested_polygon_geometry",
        "source_ids": [
          "SRC-WSC-BASIN-POLYGONS",
          "SRC-WSC-BASIN-DIRECTORY",
          "SRC-WSC-BASIN-NOTICE-2026",
          "SRC-WSC-DRAINAGE-UPDATE-2026",
          "SRC-WSC-STATION-REFERENCE"
        ],
        "last_verified": "2026-08-30",
        "geometry_role": "authoritative_polygon_expected_but_not_ingested",
        "station_number": "03QC002",
        "station_reference_url": "https://wateroffice.ec.gc.ca/station_metadata/reference_index_e.html?stnNum=03QC002",
        "watercourse": "ALEXIS RIVER NEAR PORT HOPE SIMPSON",
        "gross_drainage_area_km2": 2310,
        "gross_drainage_area_is_station_metadata": true,
        "polygon_area_computed_km2": null,
        "official_geometry_package": "MDA_ADP_03.zip",
        "official_package_identified": true,
        "geometry_ingested": false,
        "geometry_download_attempt": "failed_in_execution_environment",
        "prerelease_polygon_warning": true,
        "project_site_polygon": false,
        "notes": "No basin boundary was hand-drawn or inferred. Station drainage-area metadata is retained separately from the unavailable polygon geometry."
      }
    }
  ]
}
