{
  "type": "FeatureCollection",
  "schema_version": "pass9.0",
  "generated_at": "2026-08-30",
  "title": "Authoritative river reach registry",
  "description": "River research objects linked to official hydrometric anchors and authoritative hydrography sources. Line geometry remains null until GRHQ/Canada1Water data are actually ingested.",
  "features": [
    {
      "type": "Feature",
      "id": "REACH-NATASHQUAN",
      "geometry": null,
      "properties": {
        "id": "REACH-NATASHQUAN",
        "name": "Natashquan River / Rivière Natashquan — pass-9 research reach",
        "feature_type": "authoritative_flowline_ingestion_registry",
        "verification_status": "named_watercourse_and_station_anchor_verified_flowline_not_ingested",
        "confidence": "high_for_station_anchor_none_for_reach_geometry",
        "source_ids": [
          "SRC-WSC-STATION-REFERENCE",
          "SRC-GRHQ",
          "SRC-CANADA1WATER-NHN-STRAHLER"
        ],
        "last_verified": "2026-08-30",
        "geometry_role": "authoritative_flowline_expected_but_not_ingested",
        "river_name": "Natashquan River / Rivière Natashquan",
        "region": "Côte-Nord / Minganie",
        "jurisdiction": "Québec",
        "research_role": "research_reach",
        "hydrometric_station_id": "02WB003",
        "reach_definition": "station-linked river research object pending authoritative connected flowline ingestion; not an engineering reach boundary",
        "preferred_hydrography_source": "GRHQ",
        "secondary_hydrography_source": "Canada1Water/NHN Strahler",
        "grhq_hr_coverage_verified": false,
        "line_geometry_ingested": false,
        "connected_reach_length_km": null,
        "strahler_order": null,
        "upstream_endpoint": null,
        "downstream_endpoint": null,
        "project_intake": null,
        "project_powerhouse": null,
        "is_dam_site": false,
        "site_selection_status": "unranked_research_object",
        "ranking_allowed": false,
        "warning": "Do not connect station points with a straight line and call it a river reach."
      }
    },
    {
      "type": "Feature",
      "id": "REACH-PETIT-MECATINA",
      "geometry": null,
      "properties": {
        "id": "REACH-PETIT-MECATINA",
        "name": "Petit Mécatina River / Rivière du Petit Mécatina — pass-9 research reach",
        "feature_type": "authoritative_flowline_ingestion_registry",
        "verification_status": "named_watercourse_and_station_anchor_verified_flowline_not_ingested",
        "confidence": "high_for_station_anchor_none_for_reach_geometry",
        "source_ids": [
          "SRC-WSC-STATION-REFERENCE",
          "SRC-GRHQ",
          "SRC-CANADA1WATER-NHN-STRAHLER"
        ],
        "last_verified": "2026-08-30",
        "geometry_role": "authoritative_flowline_expected_but_not_ingested",
        "river_name": "Petit Mécatina River / Rivière du Petit Mécatina",
        "region": "Basse-Côte-Nord",
        "jurisdiction": "Québec",
        "research_role": "research_reach",
        "hydrometric_station_id": "02XA006",
        "reach_definition": "station-linked river research object pending authoritative connected flowline ingestion; not an engineering reach boundary",
        "preferred_hydrography_source": "GRHQ",
        "secondary_hydrography_source": "Canada1Water/NHN Strahler",
        "grhq_hr_coverage_verified": false,
        "line_geometry_ingested": false,
        "connected_reach_length_km": null,
        "strahler_order": null,
        "upstream_endpoint": null,
        "downstream_endpoint": null,
        "project_intake": null,
        "project_powerhouse": null,
        "is_dam_site": false,
        "site_selection_status": "unranked_research_object",
        "ranking_allowed": false,
        "warning": "Do not connect station points with a straight line and call it a river reach."
      }
    },
    {
      "type": "Feature",
      "id": "REACH-SAINT-AUGUSTIN",
      "geometry": null,
      "properties": {
        "id": "REACH-SAINT-AUGUSTIN",
        "name": "Saint-Augustin River / Rivière Saint-Augustin — pass-9 research reach",
        "feature_type": "authoritative_flowline_ingestion_registry",
        "verification_status": "named_watercourse_and_station_anchor_verified_flowline_not_ingested",
        "confidence": "high_for_station_anchor_none_for_reach_geometry",
        "source_ids": [
          "SRC-WSC-STATION-REFERENCE",
          "SRC-GRHQ",
          "SRC-CANADA1WATER-NHN-STRAHLER"
        ],
        "last_verified": "2026-08-30",
        "geometry_role": "authoritative_flowline_expected_but_not_ingested",
        "river_name": "Saint-Augustin River / Rivière Saint-Augustin",
        "region": "Basse-Côte-Nord",
        "jurisdiction": "Québec",
        "research_role": "research_reach",
        "hydrometric_station_id": "02XB001",
        "reach_definition": "station-linked river research object pending authoritative connected flowline ingestion; not an engineering reach boundary",
        "preferred_hydrography_source": "GRHQ",
        "secondary_hydrography_source": "Canada1Water/NHN Strahler",
        "grhq_hr_coverage_verified": false,
        "line_geometry_ingested": false,
        "connected_reach_length_km": null,
        "strahler_order": null,
        "upstream_endpoint": null,
        "downstream_endpoint": null,
        "project_intake": null,
        "project_powerhouse": null,
        "is_dam_site": false,
        "site_selection_status": "unranked_research_object",
        "ranking_allowed": false,
        "warning": "Do not connect station points with a straight line and call it a river reach."
      }
    },
    {
      "type": "Feature",
      "id": "REACH-SAINT-PAUL",
      "geometry": null,
      "properties": {
        "id": "REACH-SAINT-PAUL",
        "name": "Saint-Paul River / Rivière Saint-Paul — pass-9 research reach",
        "feature_type": "authoritative_flowline_ingestion_registry",
        "verification_status": "named_watercourse_and_station_anchor_verified_flowline_not_ingested",
        "confidence": "high_for_station_anchor_none_for_reach_geometry",
        "source_ids": [
          "SRC-WSC-STATION-REFERENCE",
          "SRC-GRHQ",
          "SRC-CANADA1WATER-NHN-STRAHLER"
        ],
        "last_verified": "2026-08-30",
        "geometry_role": "authoritative_flowline_expected_but_not_ingested",
        "river_name": "Saint-Paul River / Rivière Saint-Paul",
        "region": "Basse-Côte-Nord",
        "jurisdiction": "Québec",
        "research_role": "research_reach",
        "hydrometric_station_id": "02XC001",
        "reach_definition": "station-linked river research object pending authoritative connected flowline ingestion; not an engineering reach boundary",
        "preferred_hydrography_source": "GRHQ",
        "secondary_hydrography_source": "Canada1Water/NHN Strahler",
        "grhq_hr_coverage_verified": false,
        "line_geometry_ingested": false,
        "connected_reach_length_km": null,
        "strahler_order": null,
        "upstream_endpoint": null,
        "downstream_endpoint": null,
        "project_intake": null,
        "project_powerhouse": null,
        "is_dam_site": false,
        "site_selection_status": "unranked_research_object",
        "ranking_allowed": false,
        "warning": "Do not connect station points with a straight line and call it a river reach."
      }
    },
    {
      "type": "Feature",
      "id": "REACH-ETAMAMIOU",
      "geometry": null,
      "properties": {
        "id": "REACH-ETAMAMIOU",
        "name": "Etamamiou River / Rivière Etamamiou — pass-9 research reach",
        "feature_type": "authoritative_flowline_ingestion_registry",
        "verification_status": "named_watercourse_and_station_anchor_verified_flowline_not_ingested",
        "confidence": "high_for_station_anchor_none_for_reach_geometry",
        "source_ids": [
          "SRC-WSC-STATION-REFERENCE",
          "SRC-GRHQ",
          "SRC-CANADA1WATER-NHN-STRAHLER"
        ],
        "last_verified": "2026-08-30",
        "geometry_role": "authoritative_flowline_expected_but_not_ingested",
        "river_name": "Etamamiou River / Rivière Etamamiou",
        "region": "Basse-Côte-Nord",
        "jurisdiction": "Québec",
        "research_role": "research_reach",
        "hydrometric_station_id": "02WC001",
        "reach_definition": "station-linked river research object pending authoritative connected flowline ingestion; not an engineering reach boundary",
        "preferred_hydrography_source": "GRHQ",
        "secondary_hydrography_source": "Canada1Water/NHN Strahler",
        "grhq_hr_coverage_verified": false,
        "line_geometry_ingested": false,
        "connected_reach_length_km": null,
        "strahler_order": null,
        "upstream_endpoint": null,
        "downstream_endpoint": null,
        "project_intake": null,
        "project_powerhouse": null,
        "is_dam_site": false,
        "site_selection_status": "unranked_research_object",
        "ranking_allowed": false,
        "warning": "Do not connect station points with a straight line and call it a river reach."
      }
    },
    {
      "type": "Feature",
      "id": "REACH-OLOMANE",
      "geometry": null,
      "properties": {
        "id": "REACH-OLOMANE",
        "name": "Olomane River / Rivière Olomane — pass-9 research reach",
        "feature_type": "authoritative_flowline_ingestion_registry",
        "verification_status": "named_watercourse_and_station_anchor_verified_flowline_not_ingested",
        "confidence": "high_for_station_anchor_none_for_reach_geometry",
        "source_ids": [
          "SRC-WSC-STATION-REFERENCE",
          "SRC-GRHQ",
          "SRC-CANADA1WATER-NHN-STRAHLER"
        ],
        "last_verified": "2026-08-30",
        "geometry_role": "authoritative_flowline_expected_but_not_ingested",
        "river_name": "Olomane River / Rivière Olomane",
        "region": "Basse-Côte-Nord",
        "jurisdiction": "Québec",
        "research_role": "research_reach",
        "hydrometric_station_id": "02WC002",
        "reach_definition": "station-linked river research object pending authoritative connected flowline ingestion; not an engineering reach boundary",
        "preferred_hydrography_source": "GRHQ",
        "secondary_hydrography_source": "Canada1Water/NHN Strahler",
        "grhq_hr_coverage_verified": false,
        "line_geometry_ingested": false,
        "connected_reach_length_km": null,
        "strahler_order": null,
        "upstream_endpoint": null,
        "downstream_endpoint": null,
        "project_intake": null,
        "project_powerhouse": null,
        "is_dam_site": false,
        "site_selection_status": "unranked_research_object",
        "ranking_allowed": false,
        "warning": "Do not connect station points with a straight line and call it a river reach."
      }
    },
    {
      "type": "Feature",
      "id": "REACH-AGUANUS",
      "geometry": null,
      "properties": {
        "id": "REACH-AGUANUS",
        "name": "Aguanus River / Rivière Aguanus — pass-9 research reach",
        "feature_type": "authoritative_flowline_ingestion_registry",
        "verification_status": "named_watercourse_and_station_anchor_verified_flowline_not_ingested",
        "confidence": "high_for_station_anchor_none_for_reach_geometry",
        "source_ids": [
          "SRC-WSC-STATION-REFERENCE",
          "SRC-GRHQ",
          "SRC-CANADA1WATER-NHN-STRAHLER"
        ],
        "last_verified": "2026-08-30",
        "geometry_role": "authoritative_flowline_expected_but_not_ingested",
        "river_name": "Aguanus River / Rivière Aguanus",
        "region": "Côte-Nord",
        "jurisdiction": "Québec",
        "research_role": "research_reach",
        "hydrometric_station_id": "02WA002",
        "reach_definition": "station-linked river research object pending authoritative connected flowline ingestion; not an engineering reach boundary",
        "preferred_hydrography_source": "GRHQ",
        "secondary_hydrography_source": "Canada1Water/NHN Strahler",
        "grhq_hr_coverage_verified": false,
        "line_geometry_ingested": false,
        "connected_reach_length_km": null,
        "strahler_order": null,
        "upstream_endpoint": null,
        "downstream_endpoint": null,
        "project_intake": null,
        "project_powerhouse": null,
        "is_dam_site": false,
        "site_selection_status": "unranked_research_object",
        "ranking_allowed": false,
        "warning": "Do not connect station points with a straight line and call it a river reach."
      }
    },
    {
      "type": "Feature",
      "id": "REACH-NABISIPI",
      "geometry": null,
      "properties": {
        "id": "REACH-NABISIPI",
        "name": "Nabisipi River / Rivière Nabisipi — pass-9 research reach",
        "feature_type": "authoritative_flowline_ingestion_registry",
        "verification_status": "named_watercourse_and_station_anchor_verified_flowline_not_ingested",
        "confidence": "high_for_station_anchor_none_for_reach_geometry",
        "source_ids": [
          "SRC-WSC-STATION-REFERENCE",
          "SRC-GRHQ",
          "SRC-CANADA1WATER-NHN-STRAHLER"
        ],
        "last_verified": "2026-08-30",
        "geometry_role": "authoritative_flowline_expected_but_not_ingested",
        "river_name": "Nabisipi River / Rivière Nabisipi",
        "region": "Côte-Nord",
        "jurisdiction": "Québec",
        "research_role": "research_reach",
        "hydrometric_station_id": "02WA001",
        "reach_definition": "station-linked river research object pending authoritative connected flowline ingestion; not an engineering reach boundary",
        "preferred_hydrography_source": "GRHQ",
        "secondary_hydrography_source": "Canada1Water/NHN Strahler",
        "grhq_hr_coverage_verified": false,
        "line_geometry_ingested": false,
        "connected_reach_length_km": null,
        "strahler_order": null,
        "upstream_endpoint": null,
        "downstream_endpoint": null,
        "project_intake": null,
        "project_powerhouse": null,
        "is_dam_site": false,
        "site_selection_status": "unranked_research_object",
        "ranking_allowed": false,
        "warning": "Do not connect station points with a straight line and call it a river reach."
      }
    },
    {
      "type": "Feature",
      "id": "REACH-MAGPIE",
      "geometry": null,
      "properties": {
        "id": "REACH-MAGPIE",
        "name": "Magpie River / Rivière Magpie — pass-9 research reach",
        "feature_type": "authoritative_flowline_ingestion_registry",
        "verification_status": "named_watercourse_and_station_anchor_verified_flowline_not_ingested",
        "confidence": "high_for_station_anchor_none_for_reach_geometry",
        "source_ids": [
          "SRC-WSC-STATION-REFERENCE",
          "SRC-GRHQ",
          "SRC-CANADA1WATER-NHN-STRAHLER"
        ],
        "last_verified": "2026-08-30",
        "geometry_role": "authoritative_flowline_expected_but_not_ingested",
        "river_name": "Magpie River / Rivière Magpie",
        "region": "Côte-Nord",
        "jurisdiction": "Québec",
        "research_role": "comparison_reach_not_priority",
        "hydrometric_station_id": "02VB003",
        "reach_definition": "station-linked river research object pending authoritative connected flowline ingestion; not an engineering reach boundary",
        "preferred_hydrography_source": "GRHQ",
        "secondary_hydrography_source": "Canada1Water/NHN Strahler",
        "grhq_hr_coverage_verified": false,
        "line_geometry_ingested": false,
        "connected_reach_length_km": null,
        "strahler_order": null,
        "upstream_endpoint": null,
        "downstream_endpoint": null,
        "project_intake": null,
        "project_powerhouse": null,
        "is_dam_site": false,
        "site_selection_status": "unranked_research_object",
        "ranking_allowed": false,
        "warning": "Do not connect station points with a straight line and call it a river reach."
      }
    },
    {
      "type": "Feature",
      "id": "REACH-ROMAINE",
      "geometry": null,
      "properties": {
        "id": "REACH-ROMAINE",
        "name": "Romaine River / Rivière Romaine — pass-9 research reach",
        "feature_type": "authoritative_flowline_ingestion_registry",
        "verification_status": "named_watercourse_and_station_anchor_verified_flowline_not_ingested",
        "confidence": "high_for_station_anchor_none_for_reach_geometry",
        "source_ids": [
          "SRC-WSC-STATION-REFERENCE",
          "SRC-GRHQ",
          "SRC-CANADA1WATER-NHN-STRAHLER"
        ],
        "last_verified": "2026-08-30",
        "geometry_role": "authoritative_flowline_expected_but_not_ingested",
        "river_name": "Romaine River / Rivière Romaine",
        "region": "Côte-Nord",
        "jurisdiction": "Québec",
        "research_role": "comparison_existing_hydro_context",
        "hydrometric_station_id": "02VC002",
        "reach_definition": "station-linked river research object pending authoritative connected flowline ingestion; not an engineering reach boundary",
        "preferred_hydrography_source": "GRHQ",
        "secondary_hydrography_source": "Canada1Water/NHN Strahler",
        "grhq_hr_coverage_verified": false,
        "line_geometry_ingested": false,
        "connected_reach_length_km": null,
        "strahler_order": null,
        "upstream_endpoint": null,
        "downstream_endpoint": null,
        "project_intake": null,
        "project_powerhouse": null,
        "is_dam_site": false,
        "site_selection_status": "unranked_research_object",
        "ranking_allowed": false,
        "warning": "Do not connect station points with a straight line and call it a river reach."
      }
    },
    {
      "type": "Feature",
      "id": "REACH-NASTAPOKA",
      "geometry": null,
      "properties": {
        "id": "REACH-NASTAPOKA",
        "name": "Nastapoka River / Rivière Nastapoka — pass-9 research reach",
        "feature_type": "authoritative_flowline_ingestion_registry",
        "verification_status": "named_watercourse_and_station_anchor_verified_flowline_not_ingested",
        "confidence": "high_for_station_anchor_none_for_reach_geometry",
        "source_ids": [
          "SRC-WSC-STATION-REFERENCE",
          "SRC-GRHQ",
          "SRC-CANADA1WATER-NHN-STRAHLER"
        ],
        "last_verified": "2026-08-30",
        "geometry_role": "authoritative_flowline_expected_but_not_ingested",
        "river_name": "Nastapoka River / Rivière Nastapoka",
        "region": "Nunavik / Hudson Bay",
        "jurisdiction": "Québec",
        "research_role": "research_reach",
        "hydrometric_station_id": "03FA002",
        "reach_definition": "station-linked river research object pending authoritative connected flowline ingestion; not an engineering reach boundary",
        "preferred_hydrography_source": "GRHQ",
        "secondary_hydrography_source": "Canada1Water/NHN Strahler",
        "grhq_hr_coverage_verified": false,
        "line_geometry_ingested": false,
        "connected_reach_length_km": null,
        "strahler_order": null,
        "upstream_endpoint": null,
        "downstream_endpoint": null,
        "project_intake": null,
        "project_powerhouse": null,
        "is_dam_site": false,
        "site_selection_status": "unranked_research_object",
        "ranking_allowed": false,
        "warning": "Do not connect station points with a straight line and call it a river reach."
      }
    },
    {
      "type": "Feature",
      "id": "REACH-INNUKSUAC",
      "geometry": null,
      "properties": {
        "id": "REACH-INNUKSUAC",
        "name": "Innuksuac River / Rivière Innuksuac — pass-9 research reach",
        "feature_type": "authoritative_flowline_ingestion_registry",
        "verification_status": "named_watercourse_and_station_anchor_verified_flowline_not_ingested",
        "confidence": "high_for_station_anchor_none_for_reach_geometry",
        "source_ids": [
          "SRC-WSC-STATION-REFERENCE",
          "SRC-GRHQ",
          "SRC-CANADA1WATER-NHN-STRAHLER"
        ],
        "last_verified": "2026-08-30",
        "geometry_role": "authoritative_flowline_expected_but_not_ingested",
        "river_name": "Innuksuac River / Rivière Innuksuac",
        "region": "Nunavik / Hudson Bay",
        "jurisdiction": "Québec",
        "research_role": "research_reach",
        "hydrometric_station_id": "03GB001",
        "reach_definition": "station-linked river research object pending authoritative connected flowline ingestion; not an engineering reach boundary",
        "preferred_hydrography_source": "GRHQ",
        "secondary_hydrography_source": "Canada1Water/NHN Strahler",
        "grhq_hr_coverage_verified": false,
        "line_geometry_ingested": false,
        "connected_reach_length_km": null,
        "strahler_order": null,
        "upstream_endpoint": null,
        "downstream_endpoint": null,
        "project_intake": null,
        "project_powerhouse": null,
        "is_dam_site": false,
        "site_selection_status": "unranked_research_object",
        "ranking_allowed": false,
        "warning": "Do not connect station points with a straight line and call it a river reach."
      }
    },
    {
      "type": "Feature",
      "id": "REACH-KOGALUC",
      "geometry": null,
      "properties": {
        "id": "REACH-KOGALUC",
        "name": "Kogaluc River / Rivière Kogaluc — pass-9 research reach",
        "feature_type": "authoritative_flowline_ingestion_registry",
        "verification_status": "named_watercourse_and_station_anchor_verified_flowline_not_ingested",
        "confidence": "high_for_station_anchor_none_for_reach_geometry",
        "source_ids": [
          "SRC-WSC-STATION-REFERENCE",
          "SRC-GRHQ",
          "SRC-CANADA1WATER-NHN-STRAHLER"
        ],
        "last_verified": "2026-08-30",
        "geometry_role": "authoritative_flowline_expected_but_not_ingested",
        "river_name": "Kogaluc River / Rivière Kogaluc",
        "region": "Nunavik / Hudson Bay",
        "jurisdiction": "Québec",
        "research_role": "research_reach",
        "hydrometric_station_id": "03GC001",
        "reach_definition": "station-linked river research object pending authoritative connected flowline ingestion; not an engineering reach boundary",
        "preferred_hydrography_source": "GRHQ",
        "secondary_hydrography_source": "Canada1Water/NHN Strahler",
        "grhq_hr_coverage_verified": false,
        "line_geometry_ingested": false,
        "connected_reach_length_km": null,
        "strahler_order": null,
        "upstream_endpoint": null,
        "downstream_endpoint": null,
        "project_intake": null,
        "project_powerhouse": null,
        "is_dam_site": false,
        "site_selection_status": "unranked_research_object",
        "ranking_allowed": false,
        "warning": "Do not connect station points with a straight line and call it a river reach."
      }
    },
    {
      "type": "Feature",
      "id": "REACH-ARNAUD",
      "geometry": null,
      "properties": {
        "id": "REACH-ARNAUD",
        "name": "Arnaud River / Rivière Arnaud (Payne) — pass-9 research reach",
        "feature_type": "authoritative_flowline_ingestion_registry",
        "verification_status": "named_watercourse_and_station_anchor_verified_flowline_not_ingested",
        "confidence": "high_for_station_anchor_none_for_reach_geometry",
        "source_ids": [
          "SRC-WSC-STATION-REFERENCE",
          "SRC-GRHQ",
          "SRC-CANADA1WATER-NHN-STRAHLER"
        ],
        "last_verified": "2026-08-30",
        "geometry_role": "authoritative_flowline_expected_but_not_ingested",
        "river_name": "Arnaud River / Rivière Arnaud (Payne)",
        "region": "Nunavik / Ungava Bay",
        "jurisdiction": "Québec",
        "research_role": "research_reach",
        "hydrometric_station_id": "03HA003",
        "reach_definition": "station-linked river research object pending authoritative connected flowline ingestion; not an engineering reach boundary",
        "preferred_hydrography_source": "GRHQ",
        "secondary_hydrography_source": "Canada1Water/NHN Strahler",
        "grhq_hr_coverage_verified": false,
        "line_geometry_ingested": false,
        "connected_reach_length_km": null,
        "strahler_order": null,
        "upstream_endpoint": null,
        "downstream_endpoint": null,
        "project_intake": null,
        "project_powerhouse": null,
        "is_dam_site": false,
        "site_selection_status": "unranked_research_object",
        "ranking_allowed": false,
        "warning": "Do not connect station points with a straight line and call it a river reach."
      }
    },
    {
      "type": "Feature",
      "id": "REACH-LEAF",
      "geometry": null,
      "properties": {
        "id": "REACH-LEAF",
        "name": "Leaf River / Rivière aux Feuilles — pass-9 research reach",
        "feature_type": "authoritative_flowline_ingestion_registry",
        "verification_status": "named_watercourse_and_station_anchor_verified_flowline_not_ingested",
        "confidence": "high_for_station_anchor_none_for_reach_geometry",
        "source_ids": [
          "SRC-WSC-STATION-REFERENCE",
          "SRC-GRHQ",
          "SRC-CANADA1WATER-NHN-STRAHLER"
        ],
        "last_verified": "2026-08-30",
        "geometry_role": "authoritative_flowline_expected_but_not_ingested",
        "river_name": "Leaf River / Rivière aux Feuilles",
        "region": "Nunavik / Ungava Bay",
        "jurisdiction": "Québec",
        "research_role": "research_reach",
        "hydrometric_station_id": "03JB001",
        "reach_definition": "station-linked river research object pending authoritative connected flowline ingestion; not an engineering reach boundary",
        "preferred_hydrography_source": "GRHQ",
        "secondary_hydrography_source": "Canada1Water/NHN Strahler",
        "grhq_hr_coverage_verified": false,
        "line_geometry_ingested": false,
        "connected_reach_length_km": null,
        "strahler_order": null,
        "upstream_endpoint": null,
        "downstream_endpoint": null,
        "project_intake": null,
        "project_powerhouse": null,
        "is_dam_site": false,
        "site_selection_status": "unranked_research_object",
        "ranking_allowed": false,
        "warning": "Do not connect station points with a straight line and call it a river reach."
      }
    },
    {
      "type": "Feature",
      "id": "REACH-AUX-MELEZES",
      "geometry": null,
      "properties": {
        "id": "REACH-AUX-MELEZES",
        "name": "Aux Mélèzes River / Rivière aux Mélèzes — pass-9 research reach",
        "feature_type": "authoritative_flowline_ingestion_registry",
        "verification_status": "named_watercourse_and_station_anchor_verified_flowline_not_ingested",
        "confidence": "high_for_station_anchor_none_for_reach_geometry",
        "source_ids": [
          "SRC-WSC-STATION-REFERENCE",
          "SRC-GRHQ",
          "SRC-CANADA1WATER-NHN-STRAHLER"
        ],
        "last_verified": "2026-08-30",
        "geometry_role": "authoritative_flowline_expected_but_not_ingested",
        "river_name": "Aux Mélèzes River / Rivière aux Mélèzes",
        "region": "Nunavik / Koksoak system",
        "jurisdiction": "Québec",
        "research_role": "research_context_complex_system",
        "hydrometric_station_id": "03KC004",
        "reach_definition": "station-linked river research object pending authoritative connected flowline ingestion; not an engineering reach boundary",
        "preferred_hydrography_source": "GRHQ",
        "secondary_hydrography_source": "Canada1Water/NHN Strahler",
        "grhq_hr_coverage_verified": false,
        "line_geometry_ingested": false,
        "connected_reach_length_km": null,
        "strahler_order": null,
        "upstream_endpoint": null,
        "downstream_endpoint": null,
        "project_intake": null,
        "project_powerhouse": null,
        "is_dam_site": false,
        "site_selection_status": "unranked_research_object",
        "ranking_allowed": false,
        "warning": "Do not connect station points with a straight line and call it a river reach."
      }
    },
    {
      "type": "Feature",
      "id": "REACH-GREAT-WHALE",
      "geometry": null,
      "properties": {
        "id": "REACH-GREAT-WHALE",
        "name": "Great Whale River / Grande rivière de la Baleine — pass-9 research reach",
        "feature_type": "authoritative_flowline_ingestion_registry",
        "verification_status": "named_watercourse_and_station_anchor_verified_flowline_not_ingested",
        "confidence": "high_for_station_anchor_none_for_reach_geometry",
        "source_ids": [
          "SRC-WSC-STATION-REFERENCE",
          "SRC-GRHQ",
          "SRC-CANADA1WATER-NHN-STRAHLER"
        ],
        "last_verified": "2026-08-30",
        "geometry_role": "authoritative_flowline_expected_but_not_ingested",
        "river_name": "Great Whale River / Grande rivière de la Baleine",
        "region": "Nunavik / Hudson Bay",
        "jurisdiction": "Québec",
        "research_role": "comparison_legacy_large_project_context",
        "hydrometric_station_id": "03MB002",
        "reach_definition": "station-linked river research object pending authoritative connected flowline ingestion; not an engineering reach boundary",
        "preferred_hydrography_source": "GRHQ",
        "secondary_hydrography_source": "Canada1Water/NHN Strahler",
        "grhq_hr_coverage_verified": false,
        "line_geometry_ingested": false,
        "connected_reach_length_km": null,
        "strahler_order": null,
        "upstream_endpoint": null,
        "downstream_endpoint": null,
        "project_intake": null,
        "project_powerhouse": null,
        "is_dam_site": false,
        "site_selection_status": "unranked_research_object",
        "ranking_allowed": false,
        "warning": "Do not connect station points with a straight line and call it a river reach."
      }
    },
    {
      "type": "Feature",
      "id": "REACH-GEORGE",
      "geometry": null,
      "properties": {
        "id": "REACH-GEORGE",
        "name": "George River / Rivière George — pass-9 research reach",
        "feature_type": "authoritative_flowline_ingestion_registry",
        "verification_status": "named_watercourse_and_station_anchor_verified_flowline_not_ingested",
        "confidence": "high_for_station_anchor_none_for_reach_geometry",
        "source_ids": [
          "SRC-WSC-STATION-REFERENCE",
          "SRC-GRHQ",
          "SRC-CANADA1WATER-NHN-STRAHLER"
        ],
        "last_verified": "2026-08-30",
        "geometry_role": "authoritative_flowline_expected_but_not_ingested",
        "river_name": "George River / Rivière George",
        "region": "Nunavik / Labrador peninsula",
        "jurisdiction": "Québec / Labrador watershed context",
        "research_role": "research_context_large_remote_river",
        "hydrometric_station_id": "03ME002",
        "reach_definition": "station-linked river research object pending authoritative connected flowline ingestion; not an engineering reach boundary",
        "preferred_hydrography_source": "GRHQ",
        "secondary_hydrography_source": "Canada1Water/NHN Strahler",
        "grhq_hr_coverage_verified": false,
        "line_geometry_ingested": false,
        "connected_reach_length_km": null,
        "strahler_order": null,
        "upstream_endpoint": null,
        "downstream_endpoint": null,
        "project_intake": null,
        "project_powerhouse": null,
        "is_dam_site": false,
        "site_selection_status": "unranked_research_object",
        "ranking_allowed": false,
        "warning": "Do not connect station points with a straight line and call it a river reach."
      }
    },
    {
      "type": "Feature",
      "id": "REACH-UGJOKTOK",
      "geometry": null,
      "properties": {
        "id": "REACH-UGJOKTOK",
        "name": "Ugjoktok River — pass-9 research reach",
        "feature_type": "authoritative_flowline_ingestion_registry",
        "verification_status": "named_watercourse_and_station_anchor_verified_flowline_not_ingested",
        "confidence": "high_for_station_anchor_none_for_reach_geometry",
        "source_ids": [
          "SRC-WSC-STATION-REFERENCE",
          "SRC-CANADA1WATER-NHN-STRAHLER"
        ],
        "last_verified": "2026-08-30",
        "geometry_role": "authoritative_flowline_expected_but_not_ingested",
        "river_name": "Ugjoktok River",
        "region": "North Labrador",
        "jurisdiction": "Newfoundland and Labrador",
        "research_role": "research_reach",
        "hydrometric_station_id": "03NF001",
        "reach_definition": "station-linked river research object pending authoritative connected flowline ingestion; not an engineering reach boundary",
        "preferred_hydrography_source": "Canada1Water/NHN Strahler",
        "secondary_hydrography_source": null,
        "grhq_hr_coverage_verified": false,
        "line_geometry_ingested": false,
        "connected_reach_length_km": null,
        "strahler_order": null,
        "upstream_endpoint": null,
        "downstream_endpoint": null,
        "project_intake": null,
        "project_powerhouse": null,
        "is_dam_site": false,
        "site_selection_status": "unranked_research_object",
        "ranking_allowed": false,
        "warning": "Do not connect station points with a straight line and call it a river reach."
      }
    },
    {
      "type": "Feature",
      "id": "REACH-KANAIRIKTOK",
      "geometry": null,
      "properties": {
        "id": "REACH-KANAIRIKTOK",
        "name": "Kanairiktok River — pass-9 research reach",
        "feature_type": "authoritative_flowline_ingestion_registry",
        "verification_status": "named_watercourse_and_station_anchor_verified_flowline_not_ingested",
        "confidence": "high_for_station_anchor_none_for_reach_geometry",
        "source_ids": [
          "SRC-WSC-STATION-REFERENCE",
          "SRC-CANADA1WATER-NHN-STRAHLER"
        ],
        "last_verified": "2026-08-30",
        "geometry_role": "authoritative_flowline_expected_but_not_ingested",
        "river_name": "Kanairiktok River",
        "region": "North / central Labrador",
        "jurisdiction": "Newfoundland and Labrador",
        "research_role": "research_reach",
        "hydrometric_station_id": "03NG001",
        "reach_definition": "station-linked river research object pending authoritative connected flowline ingestion; not an engineering reach boundary",
        "preferred_hydrography_source": "Canada1Water/NHN Strahler",
        "secondary_hydrography_source": null,
        "grhq_hr_coverage_verified": false,
        "line_geometry_ingested": false,
        "connected_reach_length_km": null,
        "strahler_order": null,
        "upstream_endpoint": null,
        "downstream_endpoint": null,
        "project_intake": null,
        "project_powerhouse": null,
        "is_dam_site": false,
        "site_selection_status": "unranked_research_object",
        "ranking_allowed": false,
        "warning": "Do not connect station points with a straight line and call it a river reach."
      }
    },
    {
      "type": "Feature",
      "id": "REACH-NASKAUPI",
      "geometry": null,
      "properties": {
        "id": "REACH-NASKAUPI",
        "name": "Naskaupi River — pass-9 research reach",
        "feature_type": "authoritative_flowline_ingestion_registry",
        "verification_status": "named_watercourse_and_station_anchor_verified_flowline_not_ingested",
        "confidence": "high_for_station_anchor_none_for_reach_geometry",
        "source_ids": [
          "SRC-WSC-STATION-REFERENCE",
          "SRC-CANADA1WATER-NHN-STRAHLER"
        ],
        "last_verified": "2026-08-30",
        "geometry_role": "authoritative_flowline_expected_but_not_ingested",
        "river_name": "Naskaupi River",
        "region": "Lake Melville / central Labrador",
        "jurisdiction": "Newfoundland and Labrador",
        "research_role": "research_reach",
        "hydrometric_station_id": "03PB002",
        "reach_definition": "station-linked river research object pending authoritative connected flowline ingestion; not an engineering reach boundary",
        "preferred_hydrography_source": "Canada1Water/NHN Strahler",
        "secondary_hydrography_source": null,
        "grhq_hr_coverage_verified": false,
        "line_geometry_ingested": false,
        "connected_reach_length_km": null,
        "strahler_order": null,
        "upstream_endpoint": null,
        "downstream_endpoint": null,
        "project_intake": null,
        "project_powerhouse": null,
        "is_dam_site": false,
        "site_selection_status": "unranked_research_object",
        "ranking_allowed": false,
        "warning": "Do not connect station points with a straight line and call it a river reach."
      }
    },
    {
      "type": "Feature",
      "id": "REACH-MINIPI",
      "geometry": null,
      "properties": {
        "id": "REACH-MINIPI",
        "name": "Minipi River — pass-9 research reach",
        "feature_type": "authoritative_flowline_ingestion_registry",
        "verification_status": "named_watercourse_and_station_anchor_verified_flowline_not_ingested",
        "confidence": "high_for_station_anchor_none_for_reach_geometry",
        "source_ids": [
          "SRC-WSC-STATION-REFERENCE",
          "SRC-CANADA1WATER-NHN-STRAHLER"
        ],
        "last_verified": "2026-08-30",
        "geometry_role": "authoritative_flowline_expected_but_not_ingested",
        "river_name": "Minipi River",
        "region": "Central / southeast Labrador",
        "jurisdiction": "Newfoundland and Labrador",
        "research_role": "research_reach",
        "hydrometric_station_id": "03OE002",
        "reach_definition": "station-linked river research object pending authoritative connected flowline ingestion; not an engineering reach boundary",
        "preferred_hydrography_source": "Canada1Water/NHN Strahler",
        "secondary_hydrography_source": null,
        "grhq_hr_coverage_verified": false,
        "line_geometry_ingested": false,
        "connected_reach_length_km": null,
        "strahler_order": null,
        "upstream_endpoint": null,
        "downstream_endpoint": null,
        "project_intake": null,
        "project_powerhouse": null,
        "is_dam_site": false,
        "site_selection_status": "unranked_research_object",
        "ranking_allowed": false,
        "warning": "Do not connect station points with a straight line and call it a river reach."
      }
    },
    {
      "type": "Feature",
      "id": "REACH-EAGLE",
      "geometry": null,
      "properties": {
        "id": "REACH-EAGLE",
        "name": "Eagle River — pass-9 research reach",
        "feature_type": "authoritative_flowline_ingestion_registry",
        "verification_status": "named_watercourse_and_station_anchor_verified_flowline_not_ingested",
        "confidence": "high_for_station_anchor_none_for_reach_geometry",
        "source_ids": [
          "SRC-WSC-STATION-REFERENCE",
          "SRC-CANADA1WATER-NHN-STRAHLER"
        ],
        "last_verified": "2026-08-30",
        "geometry_role": "authoritative_flowline_expected_but_not_ingested",
        "river_name": "Eagle River",
        "region": "Southeast Labrador",
        "jurisdiction": "Newfoundland and Labrador",
        "research_role": "research_reach",
        "hydrometric_station_id": "03QC001",
        "reach_definition": "station-linked river research object pending authoritative connected flowline ingestion; not an engineering reach boundary",
        "preferred_hydrography_source": "Canada1Water/NHN Strahler",
        "secondary_hydrography_source": null,
        "grhq_hr_coverage_verified": false,
        "line_geometry_ingested": false,
        "connected_reach_length_km": null,
        "strahler_order": null,
        "upstream_endpoint": null,
        "downstream_endpoint": null,
        "project_intake": null,
        "project_powerhouse": null,
        "is_dam_site": false,
        "site_selection_status": "unranked_research_object",
        "ranking_allowed": false,
        "warning": "Do not connect station points with a straight line and call it a river reach."
      }
    },
    {
      "type": "Feature",
      "id": "REACH-ALEXIS",
      "geometry": null,
      "properties": {
        "id": "REACH-ALEXIS",
        "name": "Alexis River — pass-9 research reach",
        "feature_type": "authoritative_flowline_ingestion_registry",
        "verification_status": "named_watercourse_and_station_anchor_verified_flowline_not_ingested",
        "confidence": "high_for_station_anchor_none_for_reach_geometry",
        "source_ids": [
          "SRC-WSC-STATION-REFERENCE",
          "SRC-CANADA1WATER-NHN-STRAHLER"
        ],
        "last_verified": "2026-08-30",
        "geometry_role": "authoritative_flowline_expected_but_not_ingested",
        "river_name": "Alexis River",
        "region": "Southeast Labrador",
        "jurisdiction": "Newfoundland and Labrador",
        "research_role": "research_reach",
        "hydrometric_station_id": "03QC002",
        "reach_definition": "station-linked river research object pending authoritative connected flowline ingestion; not an engineering reach boundary",
        "preferred_hydrography_source": "Canada1Water/NHN Strahler",
        "secondary_hydrography_source": null,
        "grhq_hr_coverage_verified": false,
        "line_geometry_ingested": false,
        "connected_reach_length_km": null,
        "strahler_order": null,
        "upstream_endpoint": null,
        "downstream_endpoint": null,
        "project_intake": null,
        "project_powerhouse": null,
        "is_dam_site": false,
        "site_selection_status": "unranked_research_object",
        "ranking_allowed": false,
        "warning": "Do not connect station points with a straight line and call it a river reach."
      }
    }
  ]
}
