{
  "type": "FeatureCollection",
  "schema_version": "pass9.0",
  "generated_at": "2026-08-30",
  "title": "Hydro resource research reaches",
  "description": "Unranked river research objects. These are not candidate dam coordinates and contain no invented head, design flow, MW, CAPEX or LCOE.",
  "features": [
    {
      "type": "Feature",
      "id": "HYDRO-RESEARCH-NATASHQUAN",
      "geometry": null,
      "properties": {
        "id": "HYDRO-RESEARCH-NATASHQUAN",
        "name": "Natashquan River / Rivière Natashquan — hydro resource research reach",
        "feature_type": "hydro_resource_research_reach",
        "verification_status": "hydrometric_anchor_verified_geometry_hydrology_engineering_incomplete",
        "confidence": "foundation_evidence_only",
        "source_ids": [
          "SRC-WSC-STATION-REFERENCE"
        ],
        "last_verified": "2026-08-30",
        "geometry_role": "research_object_no_engineering_geometry",
        "river_name": "Natashquan River / Rivière Natashquan",
        "region": "Côte-Nord / Minganie",
        "jurisdiction": "Québec",
        "research_role": "research_reach",
        "hydrometric_station_id": "02WB003",
        "gross_drainage_area_km2_at_station": 15400,
        "linked_basin_registry_id": "BASIN-NATASHQUAN",
        "linked_reach_registry_id": "REACH-NATASHQUAN",
        "linked_terrain_status_id": "TERRAIN-NATASHQUAN",
        "legacy_community_context": null,
        "legacy_community_context_note": null,
        "official_basin_geometry_ingested": false,
        "official_river_line_ingested": false,
        "dem_profile_ingested": false,
        "flow_series_ingested": false,
        "environmental_screen_complete": false,
        "rights_governance_screen_complete": false,
        "logistics_route_verified": false,
        "engineering_site_defined": false,
        "project_head_m": null,
        "design_flow_m3s": null,
        "capacity_mw": null,
        "capex": null,
        "lcoe": null,
        "site_selection_status": "unranked_evidence_screening",
        "ranking_allowed": false,
        "next_gate": "ingest authoritative basin + connected river line, then official hydrology series and terrain profile before any engineering-site interpretation"
      }
    },
    {
      "type": "Feature",
      "id": "HYDRO-RESEARCH-PETIT-MECATINA",
      "geometry": null,
      "properties": {
        "id": "HYDRO-RESEARCH-PETIT-MECATINA",
        "name": "Petit Mécatina River / Rivière du Petit Mécatina — hydro resource research reach",
        "feature_type": "hydro_resource_research_reach",
        "verification_status": "hydrometric_anchor_verified_geometry_hydrology_engineering_incomplete",
        "confidence": "foundation_evidence_only",
        "source_ids": [
          "SRC-WSC-STATION-REFERENCE"
        ],
        "last_verified": "2026-08-30",
        "geometry_role": "research_object_no_engineering_geometry",
        "river_name": "Petit Mécatina River / Rivière du Petit Mécatina",
        "region": "Basse-Côte-Nord",
        "jurisdiction": "Québec",
        "research_role": "research_reach",
        "hydrometric_station_id": "02XA006",
        "gross_drainage_area_km2_at_station": 19200,
        "linked_basin_registry_id": "BASIN-PETIT-MECATINA",
        "linked_reach_registry_id": "REACH-PETIT-MECATINA",
        "linked_terrain_status_id": "TERRAIN-PETIT-MECATINA",
        "legacy_community_context": null,
        "legacy_community_context_note": null,
        "official_basin_geometry_ingested": false,
        "official_river_line_ingested": false,
        "dem_profile_ingested": false,
        "flow_series_ingested": false,
        "environmental_screen_complete": false,
        "rights_governance_screen_complete": false,
        "logistics_route_verified": false,
        "engineering_site_defined": false,
        "project_head_m": null,
        "design_flow_m3s": null,
        "capacity_mw": null,
        "capex": null,
        "lcoe": null,
        "site_selection_status": "unranked_evidence_screening",
        "ranking_allowed": false,
        "next_gate": "ingest authoritative basin + connected river line, then official hydrology series and terrain profile before any engineering-site interpretation"
      }
    },
    {
      "type": "Feature",
      "id": "HYDRO-RESEARCH-SAINT-AUGUSTIN",
      "geometry": null,
      "properties": {
        "id": "HYDRO-RESEARCH-SAINT-AUGUSTIN",
        "name": "Saint-Augustin River / Rivière Saint-Augustin — hydro resource research reach",
        "feature_type": "hydro_resource_research_reach",
        "verification_status": "hydrometric_anchor_verified_geometry_hydrology_engineering_incomplete",
        "confidence": "foundation_evidence_only",
        "source_ids": [
          "SRC-WSC-STATION-REFERENCE"
        ],
        "last_verified": "2026-08-30",
        "geometry_role": "research_object_no_engineering_geometry",
        "river_name": "Saint-Augustin River / Rivière Saint-Augustin",
        "region": "Basse-Côte-Nord",
        "jurisdiction": "Québec",
        "research_role": "research_reach",
        "hydrometric_station_id": "02XB001",
        "gross_drainage_area_km2_at_station": 5770,
        "linked_basin_registry_id": "BASIN-SAINT-AUGUSTIN",
        "linked_reach_registry_id": "REACH-SAINT-AUGUSTIN",
        "linked_terrain_status_id": "TERRAIN-SAINT-AUGUSTIN",
        "legacy_community_context": null,
        "legacy_community_context_note": null,
        "official_basin_geometry_ingested": false,
        "official_river_line_ingested": false,
        "dem_profile_ingested": false,
        "flow_series_ingested": false,
        "environmental_screen_complete": false,
        "rights_governance_screen_complete": false,
        "logistics_route_verified": false,
        "engineering_site_defined": false,
        "project_head_m": null,
        "design_flow_m3s": null,
        "capacity_mw": null,
        "capex": null,
        "lcoe": null,
        "site_selection_status": "unranked_evidence_screening",
        "ranking_allowed": false,
        "next_gate": "ingest authoritative basin + connected river line, then official hydrology series and terrain profile before any engineering-site interpretation"
      }
    },
    {
      "type": "Feature",
      "id": "HYDRO-RESEARCH-SAINT-PAUL",
      "geometry": null,
      "properties": {
        "id": "HYDRO-RESEARCH-SAINT-PAUL",
        "name": "Saint-Paul River / Rivière Saint-Paul — hydro resource research reach",
        "feature_type": "hydro_resource_research_reach",
        "verification_status": "hydrometric_anchor_verified_geometry_hydrology_engineering_incomplete",
        "confidence": "foundation_evidence_only",
        "source_ids": [
          "SRC-WSC-STATION-REFERENCE"
        ],
        "last_verified": "2026-08-30",
        "geometry_role": "research_object_no_engineering_geometry",
        "river_name": "Saint-Paul River / Rivière Saint-Paul",
        "region": "Basse-Côte-Nord",
        "jurisdiction": "Québec",
        "research_role": "research_reach",
        "hydrometric_station_id": "02XC001",
        "gross_drainage_area_km2_at_station": 5510,
        "linked_basin_registry_id": "BASIN-SAINT-PAUL",
        "linked_reach_registry_id": "REACH-SAINT-PAUL",
        "linked_terrain_status_id": "TERRAIN-SAINT-PAUL",
        "legacy_community_context": null,
        "legacy_community_context_note": null,
        "official_basin_geometry_ingested": false,
        "official_river_line_ingested": false,
        "dem_profile_ingested": false,
        "flow_series_ingested": false,
        "environmental_screen_complete": false,
        "rights_governance_screen_complete": false,
        "logistics_route_verified": false,
        "engineering_site_defined": false,
        "project_head_m": null,
        "design_flow_m3s": null,
        "capacity_mw": null,
        "capex": null,
        "lcoe": null,
        "site_selection_status": "unranked_evidence_screening",
        "ranking_allowed": false,
        "next_gate": "ingest authoritative basin + connected river line, then official hydrology series and terrain profile before any engineering-site interpretation"
      }
    },
    {
      "type": "Feature",
      "id": "HYDRO-RESEARCH-ETAMAMIOU",
      "geometry": null,
      "properties": {
        "id": "HYDRO-RESEARCH-ETAMAMIOU",
        "name": "Etamamiou River / Rivière Etamamiou — hydro resource research reach",
        "feature_type": "hydro_resource_research_reach",
        "verification_status": "hydrometric_anchor_verified_geometry_hydrology_engineering_incomplete",
        "confidence": "foundation_evidence_only",
        "source_ids": [
          "SRC-WSC-STATION-REFERENCE"
        ],
        "last_verified": "2026-08-30",
        "geometry_role": "research_object_no_engineering_geometry",
        "river_name": "Etamamiou River / Rivière Etamamiou",
        "region": "Basse-Côte-Nord",
        "jurisdiction": "Québec",
        "research_role": "research_reach",
        "hydrometric_station_id": "02WC001",
        "gross_drainage_area_km2_at_station": 2930,
        "linked_basin_registry_id": "BASIN-ETAMAMIOU",
        "linked_reach_registry_id": "REACH-ETAMAMIOU",
        "linked_terrain_status_id": "TERRAIN-ETAMAMIOU",
        "legacy_community_context": null,
        "legacy_community_context_note": null,
        "official_basin_geometry_ingested": false,
        "official_river_line_ingested": false,
        "dem_profile_ingested": false,
        "flow_series_ingested": false,
        "environmental_screen_complete": false,
        "rights_governance_screen_complete": false,
        "logistics_route_verified": false,
        "engineering_site_defined": false,
        "project_head_m": null,
        "design_flow_m3s": null,
        "capacity_mw": null,
        "capex": null,
        "lcoe": null,
        "site_selection_status": "unranked_evidence_screening",
        "ranking_allowed": false,
        "next_gate": "ingest authoritative basin + connected river line, then official hydrology series and terrain profile before any engineering-site interpretation"
      }
    },
    {
      "type": "Feature",
      "id": "HYDRO-RESEARCH-OLOMANE",
      "geometry": null,
      "properties": {
        "id": "HYDRO-RESEARCH-OLOMANE",
        "name": "Olomane River / Rivière Olomane — hydro resource research reach",
        "feature_type": "hydro_resource_research_reach",
        "verification_status": "hydrometric_anchor_verified_geometry_hydrology_engineering_incomplete",
        "confidence": "foundation_evidence_only",
        "source_ids": [
          "SRC-WSC-STATION-REFERENCE"
        ],
        "last_verified": "2026-08-30",
        "geometry_role": "research_object_no_engineering_geometry",
        "river_name": "Olomane River / Rivière Olomane",
        "region": "Basse-Côte-Nord",
        "jurisdiction": "Québec",
        "research_role": "research_reach",
        "hydrometric_station_id": "02WC002",
        "gross_drainage_area_km2_at_station": 5250,
        "linked_basin_registry_id": "BASIN-OLOMANE",
        "linked_reach_registry_id": "REACH-OLOMANE",
        "linked_terrain_status_id": "TERRAIN-OLOMANE",
        "legacy_community_context": null,
        "legacy_community_context_note": null,
        "official_basin_geometry_ingested": false,
        "official_river_line_ingested": false,
        "dem_profile_ingested": false,
        "flow_series_ingested": false,
        "environmental_screen_complete": false,
        "rights_governance_screen_complete": false,
        "logistics_route_verified": false,
        "engineering_site_defined": false,
        "project_head_m": null,
        "design_flow_m3s": null,
        "capacity_mw": null,
        "capex": null,
        "lcoe": null,
        "site_selection_status": "unranked_evidence_screening",
        "ranking_allowed": false,
        "next_gate": "ingest authoritative basin + connected river line, then official hydrology series and terrain profile before any engineering-site interpretation"
      }
    },
    {
      "type": "Feature",
      "id": "HYDRO-RESEARCH-AGUANUS",
      "geometry": null,
      "properties": {
        "id": "HYDRO-RESEARCH-AGUANUS",
        "name": "Aguanus River / Rivière Aguanus — hydro resource research reach",
        "feature_type": "hydro_resource_research_reach",
        "verification_status": "hydrometric_anchor_verified_geometry_hydrology_engineering_incomplete",
        "confidence": "foundation_evidence_only",
        "source_ids": [
          "SRC-WSC-STATION-REFERENCE"
        ],
        "last_verified": "2026-08-30",
        "geometry_role": "research_object_no_engineering_geometry",
        "river_name": "Aguanus River / Rivière Aguanus",
        "region": "Côte-Nord",
        "jurisdiction": "Québec",
        "research_role": "research_reach",
        "hydrometric_station_id": "02WA002",
        "gross_drainage_area_km2_at_station": 5610,
        "linked_basin_registry_id": "BASIN-AGUANUS",
        "linked_reach_registry_id": "REACH-AGUANUS",
        "linked_terrain_status_id": "TERRAIN-AGUANUS",
        "legacy_community_context": null,
        "legacy_community_context_note": null,
        "official_basin_geometry_ingested": false,
        "official_river_line_ingested": false,
        "dem_profile_ingested": false,
        "flow_series_ingested": false,
        "environmental_screen_complete": false,
        "rights_governance_screen_complete": false,
        "logistics_route_verified": false,
        "engineering_site_defined": false,
        "project_head_m": null,
        "design_flow_m3s": null,
        "capacity_mw": null,
        "capex": null,
        "lcoe": null,
        "site_selection_status": "unranked_evidence_screening",
        "ranking_allowed": false,
        "next_gate": "ingest authoritative basin + connected river line, then official hydrology series and terrain profile before any engineering-site interpretation"
      }
    },
    {
      "type": "Feature",
      "id": "HYDRO-RESEARCH-NABISIPI",
      "geometry": null,
      "properties": {
        "id": "HYDRO-RESEARCH-NABISIPI",
        "name": "Nabisipi River / Rivière Nabisipi — hydro resource research reach",
        "feature_type": "hydro_resource_research_reach",
        "verification_status": "hydrometric_anchor_verified_geometry_hydrology_engineering_incomplete",
        "confidence": "foundation_evidence_only",
        "source_ids": [
          "SRC-WSC-STATION-REFERENCE"
        ],
        "last_verified": "2026-08-30",
        "geometry_role": "research_object_no_engineering_geometry",
        "river_name": "Nabisipi River / Rivière Nabisipi",
        "region": "Côte-Nord",
        "jurisdiction": "Québec",
        "research_role": "research_reach",
        "hydrometric_station_id": "02WA001",
        "gross_drainage_area_km2_at_station": 2100,
        "linked_basin_registry_id": "BASIN-NABISIPI",
        "linked_reach_registry_id": "REACH-NABISIPI",
        "linked_terrain_status_id": "TERRAIN-NABISIPI",
        "legacy_community_context": null,
        "legacy_community_context_note": null,
        "official_basin_geometry_ingested": false,
        "official_river_line_ingested": false,
        "dem_profile_ingested": false,
        "flow_series_ingested": false,
        "environmental_screen_complete": false,
        "rights_governance_screen_complete": false,
        "logistics_route_verified": false,
        "engineering_site_defined": false,
        "project_head_m": null,
        "design_flow_m3s": null,
        "capacity_mw": null,
        "capex": null,
        "lcoe": null,
        "site_selection_status": "unranked_evidence_screening",
        "ranking_allowed": false,
        "next_gate": "ingest authoritative basin + connected river line, then official hydrology series and terrain profile before any engineering-site interpretation"
      }
    },
    {
      "type": "Feature",
      "id": "HYDRO-RESEARCH-MAGPIE",
      "geometry": null,
      "properties": {
        "id": "HYDRO-RESEARCH-MAGPIE",
        "name": "Magpie River / Rivière Magpie — hydro resource research reach",
        "feature_type": "hydro_resource_research_reach",
        "verification_status": "hydrometric_anchor_verified_geometry_hydrology_engineering_incomplete",
        "confidence": "foundation_evidence_only",
        "source_ids": [
          "SRC-WSC-STATION-REFERENCE"
        ],
        "last_verified": "2026-08-30",
        "geometry_role": "research_object_no_engineering_geometry",
        "river_name": "Magpie River / Rivière Magpie",
        "region": "Côte-Nord",
        "jurisdiction": "Québec",
        "research_role": "comparison_reach_not_priority",
        "hydrometric_station_id": "02VB003",
        "gross_drainage_area_km2_at_station": 7570,
        "linked_basin_registry_id": "BASIN-MAGPIE",
        "linked_reach_registry_id": "REACH-MAGPIE",
        "linked_terrain_status_id": "TERRAIN-MAGPIE",
        "legacy_community_context": null,
        "legacy_community_context_note": null,
        "official_basin_geometry_ingested": false,
        "official_river_line_ingested": false,
        "dem_profile_ingested": false,
        "flow_series_ingested": false,
        "environmental_screen_complete": false,
        "rights_governance_screen_complete": false,
        "logistics_route_verified": false,
        "engineering_site_defined": false,
        "project_head_m": null,
        "design_flow_m3s": null,
        "capacity_mw": null,
        "capex": null,
        "lcoe": null,
        "site_selection_status": "unranked_evidence_screening",
        "ranking_allowed": false,
        "next_gate": "ingest authoritative basin + connected river line, then official hydrology series and terrain profile before any engineering-site interpretation"
      }
    },
    {
      "type": "Feature",
      "id": "HYDRO-RESEARCH-ROMAINE",
      "geometry": null,
      "properties": {
        "id": "HYDRO-RESEARCH-ROMAINE",
        "name": "Romaine River / Rivière Romaine — hydro resource research reach",
        "feature_type": "hydro_resource_research_reach",
        "verification_status": "hydrometric_anchor_verified_geometry_hydrology_engineering_incomplete",
        "confidence": "foundation_evidence_only",
        "source_ids": [
          "SRC-WSC-STATION-REFERENCE"
        ],
        "last_verified": "2026-08-30",
        "geometry_role": "research_object_no_engineering_geometry",
        "river_name": "Romaine River / Rivière Romaine",
        "region": "Côte-Nord",
        "jurisdiction": "Québec",
        "research_role": "comparison_existing_hydro_context",
        "hydrometric_station_id": "02VC002",
        "gross_drainage_area_km2_at_station": 6700,
        "linked_basin_registry_id": "BASIN-ROMAINE",
        "linked_reach_registry_id": "REACH-ROMAINE",
        "linked_terrain_status_id": "TERRAIN-ROMAINE",
        "legacy_community_context": null,
        "legacy_community_context_note": null,
        "official_basin_geometry_ingested": false,
        "official_river_line_ingested": false,
        "dem_profile_ingested": false,
        "flow_series_ingested": false,
        "environmental_screen_complete": false,
        "rights_governance_screen_complete": false,
        "logistics_route_verified": false,
        "engineering_site_defined": false,
        "project_head_m": null,
        "design_flow_m3s": null,
        "capacity_mw": null,
        "capex": null,
        "lcoe": null,
        "site_selection_status": "unranked_evidence_screening",
        "ranking_allowed": false,
        "next_gate": "ingest authoritative basin + connected river line, then official hydrology series and terrain profile before any engineering-site interpretation"
      }
    },
    {
      "type": "Feature",
      "id": "HYDRO-RESEARCH-NASTAPOKA",
      "geometry": null,
      "properties": {
        "id": "HYDRO-RESEARCH-NASTAPOKA",
        "name": "Nastapoka River / Rivière Nastapoka — hydro resource research reach",
        "feature_type": "hydro_resource_research_reach",
        "verification_status": "hydrometric_anchor_verified_geometry_hydrology_engineering_incomplete",
        "confidence": "foundation_evidence_only",
        "source_ids": [
          "SRC-WSC-STATION-REFERENCE",
          "SRC-LEGACY-VILLAGE-INVENTORY"
        ],
        "last_verified": "2026-08-30",
        "geometry_role": "research_object_no_engineering_geometry",
        "river_name": "Nastapoka River / Rivière Nastapoka",
        "region": "Nunavik / Hudson Bay",
        "jurisdiction": "Québec",
        "research_role": "research_reach",
        "hydrometric_station_id": "03FA002",
        "gross_drainage_area_km2_at_station": 13000,
        "linked_basin_registry_id": "BASIN-NASTAPOKA",
        "linked_reach_registry_id": "REACH-NASTAPOKA",
        "linked_terrain_status_id": "TERRAIN-NASTAPOKA",
        "legacy_community_context": "Umiujaq",
        "legacy_community_context_note": "legacy village inventory links Umiujaq to Nastapoka/Lac Guillaume-Delisle/Tursujuq context",
        "official_basin_geometry_ingested": false,
        "official_river_line_ingested": false,
        "dem_profile_ingested": false,
        "flow_series_ingested": false,
        "environmental_screen_complete": false,
        "rights_governance_screen_complete": false,
        "logistics_route_verified": false,
        "engineering_site_defined": false,
        "project_head_m": null,
        "design_flow_m3s": null,
        "capacity_mw": null,
        "capex": null,
        "lcoe": null,
        "site_selection_status": "unranked_evidence_screening",
        "ranking_allowed": false,
        "next_gate": "ingest authoritative basin + connected river line, then official hydrology series and terrain profile before any engineering-site interpretation"
      }
    },
    {
      "type": "Feature",
      "id": "HYDRO-RESEARCH-INNUKSUAC",
      "geometry": null,
      "properties": {
        "id": "HYDRO-RESEARCH-INNUKSUAC",
        "name": "Innuksuac River / Rivière Innuksuac — hydro resource research reach",
        "feature_type": "hydro_resource_research_reach",
        "verification_status": "hydrometric_anchor_verified_geometry_hydrology_engineering_incomplete",
        "confidence": "foundation_evidence_only",
        "source_ids": [
          "SRC-WSC-STATION-REFERENCE"
        ],
        "last_verified": "2026-08-30",
        "geometry_role": "research_object_no_engineering_geometry",
        "river_name": "Innuksuac River / Rivière Innuksuac",
        "region": "Nunavik / Hudson Bay",
        "jurisdiction": "Québec",
        "research_role": "research_reach",
        "hydrometric_station_id": "03GB001",
        "gross_drainage_area_km2_at_station": 11500,
        "linked_basin_registry_id": "BASIN-INNUKSUAC",
        "linked_reach_registry_id": "REACH-INNUKSUAC",
        "linked_terrain_status_id": "TERRAIN-INNUKSUAC",
        "legacy_community_context": null,
        "legacy_community_context_note": null,
        "official_basin_geometry_ingested": false,
        "official_river_line_ingested": false,
        "dem_profile_ingested": false,
        "flow_series_ingested": false,
        "environmental_screen_complete": false,
        "rights_governance_screen_complete": false,
        "logistics_route_verified": false,
        "engineering_site_defined": false,
        "project_head_m": null,
        "design_flow_m3s": null,
        "capacity_mw": null,
        "capex": null,
        "lcoe": null,
        "site_selection_status": "unranked_evidence_screening",
        "ranking_allowed": false,
        "next_gate": "ingest authoritative basin + connected river line, then official hydrology series and terrain profile before any engineering-site interpretation"
      }
    },
    {
      "type": "Feature",
      "id": "HYDRO-RESEARCH-KOGALUC",
      "geometry": null,
      "properties": {
        "id": "HYDRO-RESEARCH-KOGALUC",
        "name": "Kogaluc River / Rivière Kogaluc — hydro resource research reach",
        "feature_type": "hydro_resource_research_reach",
        "verification_status": "hydrometric_anchor_verified_geometry_hydrology_engineering_incomplete",
        "confidence": "foundation_evidence_only",
        "source_ids": [
          "SRC-WSC-STATION-REFERENCE"
        ],
        "last_verified": "2026-08-30",
        "geometry_role": "research_object_no_engineering_geometry",
        "river_name": "Kogaluc River / Rivière Kogaluc",
        "region": "Nunavik / Hudson Bay",
        "jurisdiction": "Québec",
        "research_role": "research_reach",
        "hydrometric_station_id": "03GC001",
        "gross_drainage_area_km2_at_station": 12200,
        "linked_basin_registry_id": "BASIN-KOGALUC",
        "linked_reach_registry_id": "REACH-KOGALUC",
        "linked_terrain_status_id": "TERRAIN-KOGALUC",
        "legacy_community_context": null,
        "legacy_community_context_note": null,
        "official_basin_geometry_ingested": false,
        "official_river_line_ingested": false,
        "dem_profile_ingested": false,
        "flow_series_ingested": false,
        "environmental_screen_complete": false,
        "rights_governance_screen_complete": false,
        "logistics_route_verified": false,
        "engineering_site_defined": false,
        "project_head_m": null,
        "design_flow_m3s": null,
        "capacity_mw": null,
        "capex": null,
        "lcoe": null,
        "site_selection_status": "unranked_evidence_screening",
        "ranking_allowed": false,
        "next_gate": "ingest authoritative basin + connected river line, then official hydrology series and terrain profile before any engineering-site interpretation"
      }
    },
    {
      "type": "Feature",
      "id": "HYDRO-RESEARCH-ARNAUD",
      "geometry": null,
      "properties": {
        "id": "HYDRO-RESEARCH-ARNAUD",
        "name": "Arnaud River / Rivière Arnaud (Payne) — hydro resource research reach",
        "feature_type": "hydro_resource_research_reach",
        "verification_status": "hydrometric_anchor_verified_geometry_hydrology_engineering_incomplete",
        "confidence": "foundation_evidence_only",
        "source_ids": [
          "SRC-WSC-STATION-REFERENCE",
          "SRC-LEGACY-VILLAGE-INVENTORY"
        ],
        "last_verified": "2026-08-30",
        "geometry_role": "research_object_no_engineering_geometry",
        "river_name": "Arnaud River / Rivière Arnaud (Payne)",
        "region": "Nunavik / Ungava Bay",
        "jurisdiction": "Québec",
        "research_role": "research_reach",
        "hydrometric_station_id": "03HA003",
        "gross_drainage_area_km2_at_station": 42200,
        "linked_basin_registry_id": "BASIN-ARNAUD",
        "linked_reach_registry_id": "REACH-ARNAUD",
        "linked_terrain_status_id": "TERRAIN-ARNAUD",
        "legacy_community_context": "Kangirsuk",
        "legacy_community_context_note": "legacy village inventory links Kangirsuk to Arnaud/Payne River",
        "official_basin_geometry_ingested": false,
        "official_river_line_ingested": false,
        "dem_profile_ingested": false,
        "flow_series_ingested": false,
        "environmental_screen_complete": false,
        "rights_governance_screen_complete": false,
        "logistics_route_verified": false,
        "engineering_site_defined": false,
        "project_head_m": null,
        "design_flow_m3s": null,
        "capacity_mw": null,
        "capex": null,
        "lcoe": null,
        "site_selection_status": "unranked_evidence_screening",
        "ranking_allowed": false,
        "next_gate": "ingest authoritative basin + connected river line, then official hydrology series and terrain profile before any engineering-site interpretation"
      }
    },
    {
      "type": "Feature",
      "id": "HYDRO-RESEARCH-LEAF",
      "geometry": null,
      "properties": {
        "id": "HYDRO-RESEARCH-LEAF",
        "name": "Leaf River / Rivière aux Feuilles — hydro resource research reach",
        "feature_type": "hydro_resource_research_reach",
        "verification_status": "hydrometric_anchor_verified_geometry_hydrology_engineering_incomplete",
        "confidence": "foundation_evidence_only",
        "source_ids": [
          "SRC-WSC-STATION-REFERENCE",
          "SRC-LEGACY-VILLAGE-INVENTORY"
        ],
        "last_verified": "2026-08-30",
        "geometry_role": "research_object_no_engineering_geometry",
        "river_name": "Leaf River / Rivière aux Feuilles",
        "region": "Nunavik / Ungava Bay",
        "jurisdiction": "Québec",
        "research_role": "research_reach",
        "hydrometric_station_id": "03JB001",
        "gross_drainage_area_km2_at_station": 40200,
        "linked_basin_registry_id": "BASIN-LEAF",
        "linked_reach_registry_id": "REACH-LEAF",
        "linked_terrain_status_id": "TERRAIN-LEAF",
        "legacy_community_context": "Tasiujaq",
        "legacy_community_context_note": "legacy village inventory links Tasiujaq to Leaf River / Rivière aux Feuilles",
        "official_basin_geometry_ingested": false,
        "official_river_line_ingested": false,
        "dem_profile_ingested": false,
        "flow_series_ingested": false,
        "environmental_screen_complete": false,
        "rights_governance_screen_complete": false,
        "logistics_route_verified": false,
        "engineering_site_defined": false,
        "project_head_m": null,
        "design_flow_m3s": null,
        "capacity_mw": null,
        "capex": null,
        "lcoe": null,
        "site_selection_status": "unranked_evidence_screening",
        "ranking_allowed": false,
        "next_gate": "ingest authoritative basin + connected river line, then official hydrology series and terrain profile before any engineering-site interpretation"
      }
    },
    {
      "type": "Feature",
      "id": "HYDRO-RESEARCH-AUX-MELEZES",
      "geometry": null,
      "properties": {
        "id": "HYDRO-RESEARCH-AUX-MELEZES",
        "name": "Aux Mélèzes River / Rivière aux Mélèzes — hydro resource research reach",
        "feature_type": "hydro_resource_research_reach",
        "verification_status": "hydrometric_anchor_verified_geometry_hydrology_engineering_incomplete",
        "confidence": "foundation_evidence_only",
        "source_ids": [
          "SRC-WSC-STATION-REFERENCE",
          "SRC-LEGACY-VILLAGE-INVENTORY"
        ],
        "last_verified": "2026-08-30",
        "geometry_role": "research_object_no_engineering_geometry",
        "river_name": "Aux Mélèzes River / Rivière aux Mélèzes",
        "region": "Nunavik / Koksoak system",
        "jurisdiction": "Québec",
        "research_role": "research_context_complex_system",
        "hydrometric_station_id": "03KC004",
        "gross_drainage_area_km2_at_station": 41200,
        "linked_basin_registry_id": "BASIN-AUX-MELEZES",
        "linked_reach_registry_id": "REACH-AUX-MELEZES",
        "linked_terrain_status_id": "TERRAIN-AUX-MELEZES",
        "legacy_community_context": "Kuujjuaq",
        "legacy_community_context_note": "legacy inventory references Kuujjuaq in the broader Caniapiscau/Koksoak system; this is regional context, not a direct Aux Mélèzes site association",
        "official_basin_geometry_ingested": false,
        "official_river_line_ingested": false,
        "dem_profile_ingested": false,
        "flow_series_ingested": false,
        "environmental_screen_complete": false,
        "rights_governance_screen_complete": false,
        "logistics_route_verified": false,
        "engineering_site_defined": false,
        "project_head_m": null,
        "design_flow_m3s": null,
        "capacity_mw": null,
        "capex": null,
        "lcoe": null,
        "site_selection_status": "unranked_evidence_screening",
        "ranking_allowed": false,
        "next_gate": "ingest authoritative basin + connected river line, then official hydrology series and terrain profile before any engineering-site interpretation"
      }
    },
    {
      "type": "Feature",
      "id": "HYDRO-RESEARCH-GREAT-WHALE",
      "geometry": null,
      "properties": {
        "id": "HYDRO-RESEARCH-GREAT-WHALE",
        "name": "Great Whale River / Grande rivière de la Baleine — hydro resource research reach",
        "feature_type": "hydro_resource_research_reach",
        "verification_status": "hydrometric_anchor_verified_geometry_hydrology_engineering_incomplete",
        "confidence": "foundation_evidence_only",
        "source_ids": [
          "SRC-WSC-STATION-REFERENCE",
          "SRC-LEGACY-VILLAGE-INVENTORY"
        ],
        "last_verified": "2026-08-30",
        "geometry_role": "research_object_no_engineering_geometry",
        "river_name": "Great Whale River / Grande rivière de la Baleine",
        "region": "Nunavik / Hudson Bay",
        "jurisdiction": "Québec",
        "research_role": "comparison_legacy_large_project_context",
        "hydrometric_station_id": "03MB002",
        "gross_drainage_area_km2_at_station": 29700,
        "linked_basin_registry_id": "BASIN-GREAT-WHALE",
        "linked_reach_registry_id": "REACH-GREAT-WHALE",
        "linked_terrain_status_id": "TERRAIN-GREAT-WHALE",
        "legacy_community_context": "Kuujjuaraapik",
        "legacy_community_context_note": "legacy village inventory links Kuujjuaraapik to Great Whale River",
        "official_basin_geometry_ingested": false,
        "official_river_line_ingested": false,
        "dem_profile_ingested": false,
        "flow_series_ingested": false,
        "environmental_screen_complete": false,
        "rights_governance_screen_complete": false,
        "logistics_route_verified": false,
        "engineering_site_defined": false,
        "project_head_m": null,
        "design_flow_m3s": null,
        "capacity_mw": null,
        "capex": null,
        "lcoe": null,
        "site_selection_status": "unranked_evidence_screening",
        "ranking_allowed": false,
        "next_gate": "ingest authoritative basin + connected river line, then official hydrology series and terrain profile before any engineering-site interpretation"
      }
    },
    {
      "type": "Feature",
      "id": "HYDRO-RESEARCH-GEORGE",
      "geometry": null,
      "properties": {
        "id": "HYDRO-RESEARCH-GEORGE",
        "name": "George River / Rivière George — hydro resource research reach",
        "feature_type": "hydro_resource_research_reach",
        "verification_status": "hydrometric_anchor_verified_geometry_hydrology_engineering_incomplete",
        "confidence": "foundation_evidence_only",
        "source_ids": [
          "SRC-WSC-STATION-REFERENCE",
          "SRC-LEGACY-VILLAGE-INVENTORY"
        ],
        "last_verified": "2026-08-30",
        "geometry_role": "research_object_no_engineering_geometry",
        "river_name": "George River / Rivière George",
        "region": "Nunavik / Labrador peninsula",
        "jurisdiction": "Québec / Labrador watershed context",
        "research_role": "research_context_large_remote_river",
        "hydrometric_station_id": "03ME002",
        "gross_drainage_area_km2_at_station": 35200,
        "linked_basin_registry_id": "BASIN-GEORGE",
        "linked_reach_registry_id": "REACH-GEORGE",
        "linked_terrain_status_id": "TERRAIN-GEORGE",
        "legacy_community_context": "Kangiqsualujjuaq",
        "legacy_community_context_note": "legacy village inventory links Kangiqsualujjuaq to George River",
        "official_basin_geometry_ingested": false,
        "official_river_line_ingested": false,
        "dem_profile_ingested": false,
        "flow_series_ingested": false,
        "environmental_screen_complete": false,
        "rights_governance_screen_complete": false,
        "logistics_route_verified": false,
        "engineering_site_defined": false,
        "project_head_m": null,
        "design_flow_m3s": null,
        "capacity_mw": null,
        "capex": null,
        "lcoe": null,
        "site_selection_status": "unranked_evidence_screening",
        "ranking_allowed": false,
        "next_gate": "ingest authoritative basin + connected river line, then official hydrology series and terrain profile before any engineering-site interpretation"
      }
    },
    {
      "type": "Feature",
      "id": "HYDRO-RESEARCH-UGJOKTOK",
      "geometry": null,
      "properties": {
        "id": "HYDRO-RESEARCH-UGJOKTOK",
        "name": "Ugjoktok River — hydro resource research reach",
        "feature_type": "hydro_resource_research_reach",
        "verification_status": "hydrometric_anchor_verified_geometry_hydrology_engineering_incomplete",
        "confidence": "foundation_evidence_only",
        "source_ids": [
          "SRC-WSC-STATION-REFERENCE"
        ],
        "last_verified": "2026-08-30",
        "geometry_role": "research_object_no_engineering_geometry",
        "river_name": "Ugjoktok River",
        "region": "North Labrador",
        "jurisdiction": "Newfoundland and Labrador",
        "research_role": "research_reach",
        "hydrometric_station_id": "03NF001",
        "gross_drainage_area_km2_at_station": 7550,
        "linked_basin_registry_id": "BASIN-UGJOKTOK",
        "linked_reach_registry_id": "REACH-UGJOKTOK",
        "linked_terrain_status_id": "TERRAIN-UGJOKTOK",
        "legacy_community_context": null,
        "legacy_community_context_note": null,
        "official_basin_geometry_ingested": false,
        "official_river_line_ingested": false,
        "dem_profile_ingested": false,
        "flow_series_ingested": false,
        "environmental_screen_complete": false,
        "rights_governance_screen_complete": false,
        "logistics_route_verified": false,
        "engineering_site_defined": false,
        "project_head_m": null,
        "design_flow_m3s": null,
        "capacity_mw": null,
        "capex": null,
        "lcoe": null,
        "site_selection_status": "unranked_evidence_screening",
        "ranking_allowed": false,
        "next_gate": "ingest authoritative basin + connected river line, then official hydrology series and terrain profile before any engineering-site interpretation"
      }
    },
    {
      "type": "Feature",
      "id": "HYDRO-RESEARCH-KANAIRIKTOK",
      "geometry": null,
      "properties": {
        "id": "HYDRO-RESEARCH-KANAIRIKTOK",
        "name": "Kanairiktok River — hydro resource research reach",
        "feature_type": "hydro_resource_research_reach",
        "verification_status": "hydrometric_anchor_verified_geometry_hydrology_engineering_incomplete",
        "confidence": "foundation_evidence_only",
        "source_ids": [
          "SRC-WSC-STATION-REFERENCE"
        ],
        "last_verified": "2026-08-30",
        "geometry_role": "research_object_no_engineering_geometry",
        "river_name": "Kanairiktok River",
        "region": "North / central Labrador",
        "jurisdiction": "Newfoundland and Labrador",
        "research_role": "research_reach",
        "hydrometric_station_id": "03NG001",
        "gross_drainage_area_km2_at_station": 8910,
        "linked_basin_registry_id": "BASIN-KANAIRIKTOK",
        "linked_reach_registry_id": "REACH-KANAIRIKTOK",
        "linked_terrain_status_id": "TERRAIN-KANAIRIKTOK",
        "legacy_community_context": null,
        "legacy_community_context_note": null,
        "official_basin_geometry_ingested": false,
        "official_river_line_ingested": false,
        "dem_profile_ingested": false,
        "flow_series_ingested": false,
        "environmental_screen_complete": false,
        "rights_governance_screen_complete": false,
        "logistics_route_verified": false,
        "engineering_site_defined": false,
        "project_head_m": null,
        "design_flow_m3s": null,
        "capacity_mw": null,
        "capex": null,
        "lcoe": null,
        "site_selection_status": "unranked_evidence_screening",
        "ranking_allowed": false,
        "next_gate": "ingest authoritative basin + connected river line, then official hydrology series and terrain profile before any engineering-site interpretation"
      }
    },
    {
      "type": "Feature",
      "id": "HYDRO-RESEARCH-NASKAUPI",
      "geometry": null,
      "properties": {
        "id": "HYDRO-RESEARCH-NASKAUPI",
        "name": "Naskaupi River — hydro resource research reach",
        "feature_type": "hydro_resource_research_reach",
        "verification_status": "hydrometric_anchor_verified_geometry_hydrology_engineering_incomplete",
        "confidence": "foundation_evidence_only",
        "source_ids": [
          "SRC-WSC-STATION-REFERENCE"
        ],
        "last_verified": "2026-08-30",
        "geometry_role": "research_object_no_engineering_geometry",
        "river_name": "Naskaupi River",
        "region": "Lake Melville / central Labrador",
        "jurisdiction": "Newfoundland and Labrador",
        "research_role": "research_reach",
        "hydrometric_station_id": "03PB002",
        "gross_drainage_area_km2_at_station": 4300,
        "linked_basin_registry_id": "BASIN-NASKAUPI",
        "linked_reach_registry_id": "REACH-NASKAUPI",
        "linked_terrain_status_id": "TERRAIN-NASKAUPI",
        "legacy_community_context": null,
        "legacy_community_context_note": null,
        "official_basin_geometry_ingested": false,
        "official_river_line_ingested": false,
        "dem_profile_ingested": false,
        "flow_series_ingested": false,
        "environmental_screen_complete": false,
        "rights_governance_screen_complete": false,
        "logistics_route_verified": false,
        "engineering_site_defined": false,
        "project_head_m": null,
        "design_flow_m3s": null,
        "capacity_mw": null,
        "capex": null,
        "lcoe": null,
        "site_selection_status": "unranked_evidence_screening",
        "ranking_allowed": false,
        "next_gate": "ingest authoritative basin + connected river line, then official hydrology series and terrain profile before any engineering-site interpretation"
      }
    },
    {
      "type": "Feature",
      "id": "HYDRO-RESEARCH-MINIPI",
      "geometry": null,
      "properties": {
        "id": "HYDRO-RESEARCH-MINIPI",
        "name": "Minipi River — hydro resource research reach",
        "feature_type": "hydro_resource_research_reach",
        "verification_status": "hydrometric_anchor_verified_geometry_hydrology_engineering_incomplete",
        "confidence": "foundation_evidence_only",
        "source_ids": [
          "SRC-WSC-STATION-REFERENCE"
        ],
        "last_verified": "2026-08-30",
        "geometry_role": "research_object_no_engineering_geometry",
        "river_name": "Minipi River",
        "region": "Central / southeast Labrador",
        "jurisdiction": "Newfoundland and Labrador",
        "research_role": "research_reach",
        "hydrometric_station_id": "03OE002",
        "gross_drainage_area_km2_at_station": 2330,
        "linked_basin_registry_id": "BASIN-MINIPI",
        "linked_reach_registry_id": "REACH-MINIPI",
        "linked_terrain_status_id": "TERRAIN-MINIPI",
        "legacy_community_context": null,
        "legacy_community_context_note": null,
        "official_basin_geometry_ingested": false,
        "official_river_line_ingested": false,
        "dem_profile_ingested": false,
        "flow_series_ingested": false,
        "environmental_screen_complete": false,
        "rights_governance_screen_complete": false,
        "logistics_route_verified": false,
        "engineering_site_defined": false,
        "project_head_m": null,
        "design_flow_m3s": null,
        "capacity_mw": null,
        "capex": null,
        "lcoe": null,
        "site_selection_status": "unranked_evidence_screening",
        "ranking_allowed": false,
        "next_gate": "ingest authoritative basin + connected river line, then official hydrology series and terrain profile before any engineering-site interpretation"
      }
    },
    {
      "type": "Feature",
      "id": "HYDRO-RESEARCH-EAGLE",
      "geometry": null,
      "properties": {
        "id": "HYDRO-RESEARCH-EAGLE",
        "name": "Eagle River — hydro resource research reach",
        "feature_type": "hydro_resource_research_reach",
        "verification_status": "hydrometric_anchor_verified_geometry_hydrology_engineering_incomplete",
        "confidence": "foundation_evidence_only",
        "source_ids": [
          "SRC-WSC-STATION-REFERENCE"
        ],
        "last_verified": "2026-08-30",
        "geometry_role": "research_object_no_engineering_geometry",
        "river_name": "Eagle River",
        "region": "Southeast Labrador",
        "jurisdiction": "Newfoundland and Labrador",
        "research_role": "research_reach",
        "hydrometric_station_id": "03QC001",
        "gross_drainage_area_km2_at_station": 10800,
        "linked_basin_registry_id": "BASIN-EAGLE",
        "linked_reach_registry_id": "REACH-EAGLE",
        "linked_terrain_status_id": "TERRAIN-EAGLE",
        "legacy_community_context": null,
        "legacy_community_context_note": null,
        "official_basin_geometry_ingested": false,
        "official_river_line_ingested": false,
        "dem_profile_ingested": false,
        "flow_series_ingested": false,
        "environmental_screen_complete": false,
        "rights_governance_screen_complete": false,
        "logistics_route_verified": false,
        "engineering_site_defined": false,
        "project_head_m": null,
        "design_flow_m3s": null,
        "capacity_mw": null,
        "capex": null,
        "lcoe": null,
        "site_selection_status": "unranked_evidence_screening",
        "ranking_allowed": false,
        "next_gate": "ingest authoritative basin + connected river line, then official hydrology series and terrain profile before any engineering-site interpretation"
      }
    },
    {
      "type": "Feature",
      "id": "HYDRO-RESEARCH-ALEXIS",
      "geometry": null,
      "properties": {
        "id": "HYDRO-RESEARCH-ALEXIS",
        "name": "Alexis River — hydro resource research reach",
        "feature_type": "hydro_resource_research_reach",
        "verification_status": "hydrometric_anchor_verified_geometry_hydrology_engineering_incomplete",
        "confidence": "foundation_evidence_only",
        "source_ids": [
          "SRC-WSC-STATION-REFERENCE"
        ],
        "last_verified": "2026-08-30",
        "geometry_role": "research_object_no_engineering_geometry",
        "river_name": "Alexis River",
        "region": "Southeast Labrador",
        "jurisdiction": "Newfoundland and Labrador",
        "research_role": "research_reach",
        "hydrometric_station_id": "03QC002",
        "gross_drainage_area_km2_at_station": 2310,
        "linked_basin_registry_id": "BASIN-ALEXIS",
        "linked_reach_registry_id": "REACH-ALEXIS",
        "linked_terrain_status_id": "TERRAIN-ALEXIS",
        "legacy_community_context": null,
        "legacy_community_context_note": null,
        "official_basin_geometry_ingested": false,
        "official_river_line_ingested": false,
        "dem_profile_ingested": false,
        "flow_series_ingested": false,
        "environmental_screen_complete": false,
        "rights_governance_screen_complete": false,
        "logistics_route_verified": false,
        "engineering_site_defined": false,
        "project_head_m": null,
        "design_flow_m3s": null,
        "capacity_mw": null,
        "capex": null,
        "lcoe": null,
        "site_selection_status": "unranked_evidence_screening",
        "ranking_allowed": false,
        "next_gate": "ingest authoritative basin + connected river line, then official hydrology series and terrain profile before any engineering-site interpretation"
      }
    }
  ]
}
