{
  "type": "FeatureCollection",
  "schema_version": "pass9.0",
  "generated_at": "2026-08-30",
  "title": "Hydro reach logistics context",
  "description": "Join/status layer for community, port, road and fibre research. It intentionally does not recreate prior generated map geometries that are unavailable in this runtime.",
  "features": [
    {
      "type": "Feature",
      "id": "LOGCTX-NATASHQUAN",
      "geometry": null,
      "properties": {
        "id": "LOGCTX-NATASHQUAN",
        "name": "Natashquan River / Rivière Natashquan — logistics context status",
        "feature_type": "hydro_reach_logistics_context_status",
        "verification_status": "context_sources_registered_route_not_verified",
        "confidence": "low_to_medium_context_only",
        "source_ids": [],
        "last_verified": "2026-08-30",
        "geometry_role": "logistics_status_no_route_geometry",
        "reach_id": "HYDRO-RESEARCH-NATASHQUAN",
        "region": "Côte-Nord / Minganie",
        "community_context_name": null,
        "community_context_basis": null,
        "legacy_labrador_hydro_context_available": false,
        "port_feature_link": null,
        "nearest_port_distance_km": null,
        "road_distance_km": null,
        "marine_access_route": null,
        "heavy_project_cargo_verified": false,
        "fibre_route_verified": false,
        "ground_access_verified": false,
        "route_geometry_ingested": false,
        "note": "Pass 9 does not reuse missing pass-7 generated port geometries by memory. Port/road/fibre joins must be reattached from the versioned map stack when merged."
      }
    },
    {
      "type": "Feature",
      "id": "LOGCTX-PETIT-MECATINA",
      "geometry": null,
      "properties": {
        "id": "LOGCTX-PETIT-MECATINA",
        "name": "Petit Mécatina River / Rivière du Petit Mécatina — logistics context status",
        "feature_type": "hydro_reach_logistics_context_status",
        "verification_status": "context_sources_registered_route_not_verified",
        "confidence": "low_to_medium_context_only",
        "source_ids": [],
        "last_verified": "2026-08-30",
        "geometry_role": "logistics_status_no_route_geometry",
        "reach_id": "HYDRO-RESEARCH-PETIT-MECATINA",
        "region": "Basse-Côte-Nord",
        "community_context_name": null,
        "community_context_basis": null,
        "legacy_labrador_hydro_context_available": false,
        "port_feature_link": null,
        "nearest_port_distance_km": null,
        "road_distance_km": null,
        "marine_access_route": null,
        "heavy_project_cargo_verified": false,
        "fibre_route_verified": false,
        "ground_access_verified": false,
        "route_geometry_ingested": false,
        "note": "Pass 9 does not reuse missing pass-7 generated port geometries by memory. Port/road/fibre joins must be reattached from the versioned map stack when merged."
      }
    },
    {
      "type": "Feature",
      "id": "LOGCTX-SAINT-AUGUSTIN",
      "geometry": null,
      "properties": {
        "id": "LOGCTX-SAINT-AUGUSTIN",
        "name": "Saint-Augustin River / Rivière Saint-Augustin — logistics context status",
        "feature_type": "hydro_reach_logistics_context_status",
        "verification_status": "context_sources_registered_route_not_verified",
        "confidence": "low_to_medium_context_only",
        "source_ids": [],
        "last_verified": "2026-08-30",
        "geometry_role": "logistics_status_no_route_geometry",
        "reach_id": "HYDRO-RESEARCH-SAINT-AUGUSTIN",
        "region": "Basse-Côte-Nord",
        "community_context_name": null,
        "community_context_basis": null,
        "legacy_labrador_hydro_context_available": false,
        "port_feature_link": null,
        "nearest_port_distance_km": null,
        "road_distance_km": null,
        "marine_access_route": null,
        "heavy_project_cargo_verified": false,
        "fibre_route_verified": false,
        "ground_access_verified": false,
        "route_geometry_ingested": false,
        "note": "Pass 9 does not reuse missing pass-7 generated port geometries by memory. Port/road/fibre joins must be reattached from the versioned map stack when merged."
      }
    },
    {
      "type": "Feature",
      "id": "LOGCTX-SAINT-PAUL",
      "geometry": null,
      "properties": {
        "id": "LOGCTX-SAINT-PAUL",
        "name": "Saint-Paul River / Rivière Saint-Paul — logistics context status",
        "feature_type": "hydro_reach_logistics_context_status",
        "verification_status": "context_sources_registered_route_not_verified",
        "confidence": "low_to_medium_context_only",
        "source_ids": [],
        "last_verified": "2026-08-30",
        "geometry_role": "logistics_status_no_route_geometry",
        "reach_id": "HYDRO-RESEARCH-SAINT-PAUL",
        "region": "Basse-Côte-Nord",
        "community_context_name": null,
        "community_context_basis": null,
        "legacy_labrador_hydro_context_available": false,
        "port_feature_link": null,
        "nearest_port_distance_km": null,
        "road_distance_km": null,
        "marine_access_route": null,
        "heavy_project_cargo_verified": false,
        "fibre_route_verified": false,
        "ground_access_verified": false,
        "route_geometry_ingested": false,
        "note": "Pass 9 does not reuse missing pass-7 generated port geometries by memory. Port/road/fibre joins must be reattached from the versioned map stack when merged."
      }
    },
    {
      "type": "Feature",
      "id": "LOGCTX-ETAMAMIOU",
      "geometry": null,
      "properties": {
        "id": "LOGCTX-ETAMAMIOU",
        "name": "Etamamiou River / Rivière Etamamiou — logistics context status",
        "feature_type": "hydro_reach_logistics_context_status",
        "verification_status": "context_sources_registered_route_not_verified",
        "confidence": "low_to_medium_context_only",
        "source_ids": [],
        "last_verified": "2026-08-30",
        "geometry_role": "logistics_status_no_route_geometry",
        "reach_id": "HYDRO-RESEARCH-ETAMAMIOU",
        "region": "Basse-Côte-Nord",
        "community_context_name": null,
        "community_context_basis": null,
        "legacy_labrador_hydro_context_available": false,
        "port_feature_link": null,
        "nearest_port_distance_km": null,
        "road_distance_km": null,
        "marine_access_route": null,
        "heavy_project_cargo_verified": false,
        "fibre_route_verified": false,
        "ground_access_verified": false,
        "route_geometry_ingested": false,
        "note": "Pass 9 does not reuse missing pass-7 generated port geometries by memory. Port/road/fibre joins must be reattached from the versioned map stack when merged."
      }
    },
    {
      "type": "Feature",
      "id": "LOGCTX-OLOMANE",
      "geometry": null,
      "properties": {
        "id": "LOGCTX-OLOMANE",
        "name": "Olomane River / Rivière Olomane — logistics context status",
        "feature_type": "hydro_reach_logistics_context_status",
        "verification_status": "context_sources_registered_route_not_verified",
        "confidence": "low_to_medium_context_only",
        "source_ids": [],
        "last_verified": "2026-08-30",
        "geometry_role": "logistics_status_no_route_geometry",
        "reach_id": "HYDRO-RESEARCH-OLOMANE",
        "region": "Basse-Côte-Nord",
        "community_context_name": null,
        "community_context_basis": null,
        "legacy_labrador_hydro_context_available": false,
        "port_feature_link": null,
        "nearest_port_distance_km": null,
        "road_distance_km": null,
        "marine_access_route": null,
        "heavy_project_cargo_verified": false,
        "fibre_route_verified": false,
        "ground_access_verified": false,
        "route_geometry_ingested": false,
        "note": "Pass 9 does not reuse missing pass-7 generated port geometries by memory. Port/road/fibre joins must be reattached from the versioned map stack when merged."
      }
    },
    {
      "type": "Feature",
      "id": "LOGCTX-AGUANUS",
      "geometry": null,
      "properties": {
        "id": "LOGCTX-AGUANUS",
        "name": "Aguanus River / Rivière Aguanus — logistics context status",
        "feature_type": "hydro_reach_logistics_context_status",
        "verification_status": "context_sources_registered_route_not_verified",
        "confidence": "low_to_medium_context_only",
        "source_ids": [],
        "last_verified": "2026-08-30",
        "geometry_role": "logistics_status_no_route_geometry",
        "reach_id": "HYDRO-RESEARCH-AGUANUS",
        "region": "Côte-Nord",
        "community_context_name": null,
        "community_context_basis": null,
        "legacy_labrador_hydro_context_available": false,
        "port_feature_link": null,
        "nearest_port_distance_km": null,
        "road_distance_km": null,
        "marine_access_route": null,
        "heavy_project_cargo_verified": false,
        "fibre_route_verified": false,
        "ground_access_verified": false,
        "route_geometry_ingested": false,
        "note": "Pass 9 does not reuse missing pass-7 generated port geometries by memory. Port/road/fibre joins must be reattached from the versioned map stack when merged."
      }
    },
    {
      "type": "Feature",
      "id": "LOGCTX-NABISIPI",
      "geometry": null,
      "properties": {
        "id": "LOGCTX-NABISIPI",
        "name": "Nabisipi River / Rivière Nabisipi — logistics context status",
        "feature_type": "hydro_reach_logistics_context_status",
        "verification_status": "context_sources_registered_route_not_verified",
        "confidence": "low_to_medium_context_only",
        "source_ids": [],
        "last_verified": "2026-08-30",
        "geometry_role": "logistics_status_no_route_geometry",
        "reach_id": "HYDRO-RESEARCH-NABISIPI",
        "region": "Côte-Nord",
        "community_context_name": null,
        "community_context_basis": null,
        "legacy_labrador_hydro_context_available": false,
        "port_feature_link": null,
        "nearest_port_distance_km": null,
        "road_distance_km": null,
        "marine_access_route": null,
        "heavy_project_cargo_verified": false,
        "fibre_route_verified": false,
        "ground_access_verified": false,
        "route_geometry_ingested": false,
        "note": "Pass 9 does not reuse missing pass-7 generated port geometries by memory. Port/road/fibre joins must be reattached from the versioned map stack when merged."
      }
    },
    {
      "type": "Feature",
      "id": "LOGCTX-MAGPIE",
      "geometry": null,
      "properties": {
        "id": "LOGCTX-MAGPIE",
        "name": "Magpie River / Rivière Magpie — logistics context status",
        "feature_type": "hydro_reach_logistics_context_status",
        "verification_status": "context_sources_registered_route_not_verified",
        "confidence": "low_to_medium_context_only",
        "source_ids": [],
        "last_verified": "2026-08-30",
        "geometry_role": "logistics_status_no_route_geometry",
        "reach_id": "HYDRO-RESEARCH-MAGPIE",
        "region": "Côte-Nord",
        "community_context_name": null,
        "community_context_basis": null,
        "legacy_labrador_hydro_context_available": false,
        "port_feature_link": null,
        "nearest_port_distance_km": null,
        "road_distance_km": null,
        "marine_access_route": null,
        "heavy_project_cargo_verified": false,
        "fibre_route_verified": false,
        "ground_access_verified": false,
        "route_geometry_ingested": false,
        "note": "Pass 9 does not reuse missing pass-7 generated port geometries by memory. Port/road/fibre joins must be reattached from the versioned map stack when merged."
      }
    },
    {
      "type": "Feature",
      "id": "LOGCTX-ROMAINE",
      "geometry": null,
      "properties": {
        "id": "LOGCTX-ROMAINE",
        "name": "Romaine River / Rivière Romaine — logistics context status",
        "feature_type": "hydro_reach_logistics_context_status",
        "verification_status": "context_sources_registered_route_not_verified",
        "confidence": "low_to_medium_context_only",
        "source_ids": [],
        "last_verified": "2026-08-30",
        "geometry_role": "logistics_status_no_route_geometry",
        "reach_id": "HYDRO-RESEARCH-ROMAINE",
        "region": "Côte-Nord",
        "community_context_name": null,
        "community_context_basis": null,
        "legacy_labrador_hydro_context_available": false,
        "port_feature_link": null,
        "nearest_port_distance_km": null,
        "road_distance_km": null,
        "marine_access_route": null,
        "heavy_project_cargo_verified": false,
        "fibre_route_verified": false,
        "ground_access_verified": false,
        "route_geometry_ingested": false,
        "note": "Pass 9 does not reuse missing pass-7 generated port geometries by memory. Port/road/fibre joins must be reattached from the versioned map stack when merged."
      }
    },
    {
      "type": "Feature",
      "id": "LOGCTX-NASTAPOKA",
      "geometry": null,
      "properties": {
        "id": "LOGCTX-NASTAPOKA",
        "name": "Nastapoka River / Rivière Nastapoka — logistics context status",
        "feature_type": "hydro_reach_logistics_context_status",
        "verification_status": "context_sources_registered_route_not_verified",
        "confidence": "low_to_medium_context_only",
        "source_ids": [
          "SRC-LEGACY-VILLAGE-INVENTORY"
        ],
        "last_verified": "2026-08-30",
        "geometry_role": "logistics_status_no_route_geometry",
        "reach_id": "HYDRO-RESEARCH-NASTAPOKA",
        "region": "Nunavik / Hudson Bay",
        "community_context_name": "Umiujaq",
        "community_context_basis": "legacy village inventory links Umiujaq to Nastapoka/Lac Guillaume-Delisle/Tursujuq context",
        "legacy_labrador_hydro_context_available": false,
        "port_feature_link": null,
        "nearest_port_distance_km": null,
        "road_distance_km": null,
        "marine_access_route": null,
        "heavy_project_cargo_verified": false,
        "fibre_route_verified": false,
        "ground_access_verified": false,
        "route_geometry_ingested": false,
        "note": "Pass 9 does not reuse missing pass-7 generated port geometries by memory. Port/road/fibre joins must be reattached from the versioned map stack when merged."
      }
    },
    {
      "type": "Feature",
      "id": "LOGCTX-INNUKSUAC",
      "geometry": null,
      "properties": {
        "id": "LOGCTX-INNUKSUAC",
        "name": "Innuksuac River / Rivière Innuksuac — logistics context status",
        "feature_type": "hydro_reach_logistics_context_status",
        "verification_status": "context_sources_registered_route_not_verified",
        "confidence": "low_to_medium_context_only",
        "source_ids": [],
        "last_verified": "2026-08-30",
        "geometry_role": "logistics_status_no_route_geometry",
        "reach_id": "HYDRO-RESEARCH-INNUKSUAC",
        "region": "Nunavik / Hudson Bay",
        "community_context_name": null,
        "community_context_basis": null,
        "legacy_labrador_hydro_context_available": false,
        "port_feature_link": null,
        "nearest_port_distance_km": null,
        "road_distance_km": null,
        "marine_access_route": null,
        "heavy_project_cargo_verified": false,
        "fibre_route_verified": false,
        "ground_access_verified": false,
        "route_geometry_ingested": false,
        "note": "Pass 9 does not reuse missing pass-7 generated port geometries by memory. Port/road/fibre joins must be reattached from the versioned map stack when merged."
      }
    },
    {
      "type": "Feature",
      "id": "LOGCTX-KOGALUC",
      "geometry": null,
      "properties": {
        "id": "LOGCTX-KOGALUC",
        "name": "Kogaluc River / Rivière Kogaluc — logistics context status",
        "feature_type": "hydro_reach_logistics_context_status",
        "verification_status": "context_sources_registered_route_not_verified",
        "confidence": "low_to_medium_context_only",
        "source_ids": [],
        "last_verified": "2026-08-30",
        "geometry_role": "logistics_status_no_route_geometry",
        "reach_id": "HYDRO-RESEARCH-KOGALUC",
        "region": "Nunavik / Hudson Bay",
        "community_context_name": null,
        "community_context_basis": null,
        "legacy_labrador_hydro_context_available": false,
        "port_feature_link": null,
        "nearest_port_distance_km": null,
        "road_distance_km": null,
        "marine_access_route": null,
        "heavy_project_cargo_verified": false,
        "fibre_route_verified": false,
        "ground_access_verified": false,
        "route_geometry_ingested": false,
        "note": "Pass 9 does not reuse missing pass-7 generated port geometries by memory. Port/road/fibre joins must be reattached from the versioned map stack when merged."
      }
    },
    {
      "type": "Feature",
      "id": "LOGCTX-ARNAUD",
      "geometry": null,
      "properties": {
        "id": "LOGCTX-ARNAUD",
        "name": "Arnaud River / Rivière Arnaud (Payne) — logistics context status",
        "feature_type": "hydro_reach_logistics_context_status",
        "verification_status": "context_sources_registered_route_not_verified",
        "confidence": "low_to_medium_context_only",
        "source_ids": [
          "SRC-LEGACY-VILLAGE-INVENTORY"
        ],
        "last_verified": "2026-08-30",
        "geometry_role": "logistics_status_no_route_geometry",
        "reach_id": "HYDRO-RESEARCH-ARNAUD",
        "region": "Nunavik / Ungava Bay",
        "community_context_name": "Kangirsuk",
        "community_context_basis": "legacy village inventory links Kangirsuk to Arnaud/Payne River",
        "legacy_labrador_hydro_context_available": false,
        "port_feature_link": null,
        "nearest_port_distance_km": null,
        "road_distance_km": null,
        "marine_access_route": null,
        "heavy_project_cargo_verified": false,
        "fibre_route_verified": false,
        "ground_access_verified": false,
        "route_geometry_ingested": false,
        "note": "Pass 9 does not reuse missing pass-7 generated port geometries by memory. Port/road/fibre joins must be reattached from the versioned map stack when merged."
      }
    },
    {
      "type": "Feature",
      "id": "LOGCTX-LEAF",
      "geometry": null,
      "properties": {
        "id": "LOGCTX-LEAF",
        "name": "Leaf River / Rivière aux Feuilles — logistics context status",
        "feature_type": "hydro_reach_logistics_context_status",
        "verification_status": "context_sources_registered_route_not_verified",
        "confidence": "low_to_medium_context_only",
        "source_ids": [
          "SRC-LEGACY-VILLAGE-INVENTORY"
        ],
        "last_verified": "2026-08-30",
        "geometry_role": "logistics_status_no_route_geometry",
        "reach_id": "HYDRO-RESEARCH-LEAF",
        "region": "Nunavik / Ungava Bay",
        "community_context_name": "Tasiujaq",
        "community_context_basis": "legacy village inventory links Tasiujaq to Leaf River / Rivière aux Feuilles",
        "legacy_labrador_hydro_context_available": false,
        "port_feature_link": null,
        "nearest_port_distance_km": null,
        "road_distance_km": null,
        "marine_access_route": null,
        "heavy_project_cargo_verified": false,
        "fibre_route_verified": false,
        "ground_access_verified": false,
        "route_geometry_ingested": false,
        "note": "Pass 9 does not reuse missing pass-7 generated port geometries by memory. Port/road/fibre joins must be reattached from the versioned map stack when merged."
      }
    },
    {
      "type": "Feature",
      "id": "LOGCTX-AUX-MELEZES",
      "geometry": null,
      "properties": {
        "id": "LOGCTX-AUX-MELEZES",
        "name": "Aux Mélèzes River / Rivière aux Mélèzes — logistics context status",
        "feature_type": "hydro_reach_logistics_context_status",
        "verification_status": "context_sources_registered_route_not_verified",
        "confidence": "low_to_medium_context_only",
        "source_ids": [
          "SRC-LEGACY-VILLAGE-INVENTORY"
        ],
        "last_verified": "2026-08-30",
        "geometry_role": "logistics_status_no_route_geometry",
        "reach_id": "HYDRO-RESEARCH-AUX-MELEZES",
        "region": "Nunavik / Koksoak system",
        "community_context_name": "Kuujjuaq",
        "community_context_basis": "legacy inventory references Kuujjuaq in the broader Caniapiscau/Koksoak system; this is regional context, not a direct Aux Mélèzes site association",
        "legacy_labrador_hydro_context_available": false,
        "port_feature_link": null,
        "nearest_port_distance_km": null,
        "road_distance_km": null,
        "marine_access_route": null,
        "heavy_project_cargo_verified": false,
        "fibre_route_verified": false,
        "ground_access_verified": false,
        "route_geometry_ingested": false,
        "note": "Pass 9 does not reuse missing pass-7 generated port geometries by memory. Port/road/fibre joins must be reattached from the versioned map stack when merged."
      }
    },
    {
      "type": "Feature",
      "id": "LOGCTX-GREAT-WHALE",
      "geometry": null,
      "properties": {
        "id": "LOGCTX-GREAT-WHALE",
        "name": "Great Whale River / Grande rivière de la Baleine — logistics context status",
        "feature_type": "hydro_reach_logistics_context_status",
        "verification_status": "context_sources_registered_route_not_verified",
        "confidence": "low_to_medium_context_only",
        "source_ids": [
          "SRC-LEGACY-VILLAGE-INVENTORY"
        ],
        "last_verified": "2026-08-30",
        "geometry_role": "logistics_status_no_route_geometry",
        "reach_id": "HYDRO-RESEARCH-GREAT-WHALE",
        "region": "Nunavik / Hudson Bay",
        "community_context_name": "Kuujjuaraapik",
        "community_context_basis": "legacy village inventory links Kuujjuaraapik to Great Whale River",
        "legacy_labrador_hydro_context_available": false,
        "port_feature_link": null,
        "nearest_port_distance_km": null,
        "road_distance_km": null,
        "marine_access_route": null,
        "heavy_project_cargo_verified": false,
        "fibre_route_verified": false,
        "ground_access_verified": false,
        "route_geometry_ingested": false,
        "note": "Pass 9 does not reuse missing pass-7 generated port geometries by memory. Port/road/fibre joins must be reattached from the versioned map stack when merged."
      }
    },
    {
      "type": "Feature",
      "id": "LOGCTX-GEORGE",
      "geometry": null,
      "properties": {
        "id": "LOGCTX-GEORGE",
        "name": "George River / Rivière George — logistics context status",
        "feature_type": "hydro_reach_logistics_context_status",
        "verification_status": "context_sources_registered_route_not_verified",
        "confidence": "low_to_medium_context_only",
        "source_ids": [
          "SRC-LEGACY-VILLAGE-INVENTORY"
        ],
        "last_verified": "2026-08-30",
        "geometry_role": "logistics_status_no_route_geometry",
        "reach_id": "HYDRO-RESEARCH-GEORGE",
        "region": "Nunavik / Labrador peninsula",
        "community_context_name": "Kangiqsualujjuaq",
        "community_context_basis": "legacy village inventory links Kangiqsualujjuaq to George River",
        "legacy_labrador_hydro_context_available": false,
        "port_feature_link": null,
        "nearest_port_distance_km": null,
        "road_distance_km": null,
        "marine_access_route": null,
        "heavy_project_cargo_verified": false,
        "fibre_route_verified": false,
        "ground_access_verified": false,
        "route_geometry_ingested": false,
        "note": "Pass 9 does not reuse missing pass-7 generated port geometries by memory. Port/road/fibre joins must be reattached from the versioned map stack when merged."
      }
    },
    {
      "type": "Feature",
      "id": "LOGCTX-UGJOKTOK",
      "geometry": null,
      "properties": {
        "id": "LOGCTX-UGJOKTOK",
        "name": "Ugjoktok River — logistics context status",
        "feature_type": "hydro_reach_logistics_context_status",
        "verification_status": "context_sources_registered_route_not_verified",
        "confidence": "low_to_medium_context_only",
        "source_ids": [
          "SRC-LEGACY-LAB-HYDRO"
        ],
        "last_verified": "2026-08-30",
        "geometry_role": "logistics_status_no_route_geometry",
        "reach_id": "HYDRO-RESEARCH-UGJOKTOK",
        "region": "North Labrador",
        "community_context_name": null,
        "community_context_basis": null,
        "legacy_labrador_hydro_context_available": true,
        "port_feature_link": null,
        "nearest_port_distance_km": null,
        "road_distance_km": null,
        "marine_access_route": null,
        "heavy_project_cargo_verified": false,
        "fibre_route_verified": false,
        "ground_access_verified": false,
        "route_geometry_ingested": false,
        "note": "Pass 9 does not reuse missing pass-7 generated port geometries by memory. Port/road/fibre joins must be reattached from the versioned map stack when merged."
      }
    },
    {
      "type": "Feature",
      "id": "LOGCTX-KANAIRIKTOK",
      "geometry": null,
      "properties": {
        "id": "LOGCTX-KANAIRIKTOK",
        "name": "Kanairiktok River — logistics context status",
        "feature_type": "hydro_reach_logistics_context_status",
        "verification_status": "context_sources_registered_route_not_verified",
        "confidence": "low_to_medium_context_only",
        "source_ids": [
          "SRC-LEGACY-LAB-HYDRO"
        ],
        "last_verified": "2026-08-30",
        "geometry_role": "logistics_status_no_route_geometry",
        "reach_id": "HYDRO-RESEARCH-KANAIRIKTOK",
        "region": "North / central Labrador",
        "community_context_name": null,
        "community_context_basis": null,
        "legacy_labrador_hydro_context_available": true,
        "port_feature_link": null,
        "nearest_port_distance_km": null,
        "road_distance_km": null,
        "marine_access_route": null,
        "heavy_project_cargo_verified": false,
        "fibre_route_verified": false,
        "ground_access_verified": false,
        "route_geometry_ingested": false,
        "note": "Pass 9 does not reuse missing pass-7 generated port geometries by memory. Port/road/fibre joins must be reattached from the versioned map stack when merged."
      }
    },
    {
      "type": "Feature",
      "id": "LOGCTX-NASKAUPI",
      "geometry": null,
      "properties": {
        "id": "LOGCTX-NASKAUPI",
        "name": "Naskaupi River — logistics context status",
        "feature_type": "hydro_reach_logistics_context_status",
        "verification_status": "context_sources_registered_route_not_verified",
        "confidence": "low_to_medium_context_only",
        "source_ids": [
          "SRC-LEGACY-LAB-HYDRO"
        ],
        "last_verified": "2026-08-30",
        "geometry_role": "logistics_status_no_route_geometry",
        "reach_id": "HYDRO-RESEARCH-NASKAUPI",
        "region": "Lake Melville / central Labrador",
        "community_context_name": null,
        "community_context_basis": null,
        "legacy_labrador_hydro_context_available": true,
        "port_feature_link": null,
        "nearest_port_distance_km": null,
        "road_distance_km": null,
        "marine_access_route": null,
        "heavy_project_cargo_verified": false,
        "fibre_route_verified": false,
        "ground_access_verified": false,
        "route_geometry_ingested": false,
        "note": "Pass 9 does not reuse missing pass-7 generated port geometries by memory. Port/road/fibre joins must be reattached from the versioned map stack when merged."
      }
    },
    {
      "type": "Feature",
      "id": "LOGCTX-MINIPI",
      "geometry": null,
      "properties": {
        "id": "LOGCTX-MINIPI",
        "name": "Minipi River — logistics context status",
        "feature_type": "hydro_reach_logistics_context_status",
        "verification_status": "context_sources_registered_route_not_verified",
        "confidence": "low_to_medium_context_only",
        "source_ids": [
          "SRC-LEGACY-LAB-HYDRO"
        ],
        "last_verified": "2026-08-30",
        "geometry_role": "logistics_status_no_route_geometry",
        "reach_id": "HYDRO-RESEARCH-MINIPI",
        "region": "Central / southeast Labrador",
        "community_context_name": null,
        "community_context_basis": null,
        "legacy_labrador_hydro_context_available": true,
        "port_feature_link": null,
        "nearest_port_distance_km": null,
        "road_distance_km": null,
        "marine_access_route": null,
        "heavy_project_cargo_verified": false,
        "fibre_route_verified": false,
        "ground_access_verified": false,
        "route_geometry_ingested": false,
        "note": "Pass 9 does not reuse missing pass-7 generated port geometries by memory. Port/road/fibre joins must be reattached from the versioned map stack when merged."
      }
    },
    {
      "type": "Feature",
      "id": "LOGCTX-EAGLE",
      "geometry": null,
      "properties": {
        "id": "LOGCTX-EAGLE",
        "name": "Eagle River — logistics context status",
        "feature_type": "hydro_reach_logistics_context_status",
        "verification_status": "context_sources_registered_route_not_verified",
        "confidence": "low_to_medium_context_only",
        "source_ids": [
          "SRC-LEGACY-LAB-HYDRO"
        ],
        "last_verified": "2026-08-30",
        "geometry_role": "logistics_status_no_route_geometry",
        "reach_id": "HYDRO-RESEARCH-EAGLE",
        "region": "Southeast Labrador",
        "community_context_name": null,
        "community_context_basis": null,
        "legacy_labrador_hydro_context_available": true,
        "port_feature_link": null,
        "nearest_port_distance_km": null,
        "road_distance_km": null,
        "marine_access_route": null,
        "heavy_project_cargo_verified": false,
        "fibre_route_verified": false,
        "ground_access_verified": false,
        "route_geometry_ingested": false,
        "note": "Pass 9 does not reuse missing pass-7 generated port geometries by memory. Port/road/fibre joins must be reattached from the versioned map stack when merged."
      }
    },
    {
      "type": "Feature",
      "id": "LOGCTX-ALEXIS",
      "geometry": null,
      "properties": {
        "id": "LOGCTX-ALEXIS",
        "name": "Alexis River — logistics context status",
        "feature_type": "hydro_reach_logistics_context_status",
        "verification_status": "context_sources_registered_route_not_verified",
        "confidence": "low_to_medium_context_only",
        "source_ids": [
          "SRC-LEGACY-LAB-HYDRO"
        ],
        "last_verified": "2026-08-30",
        "geometry_role": "logistics_status_no_route_geometry",
        "reach_id": "HYDRO-RESEARCH-ALEXIS",
        "region": "Southeast Labrador",
        "community_context_name": null,
        "community_context_basis": null,
        "legacy_labrador_hydro_context_available": true,
        "port_feature_link": null,
        "nearest_port_distance_km": null,
        "road_distance_km": null,
        "marine_access_route": null,
        "heavy_project_cargo_verified": false,
        "fibre_route_verified": false,
        "ground_access_verified": false,
        "route_geometry_ingested": false,
        "note": "Pass 9 does not reuse missing pass-7 generated port geometries by memory. Port/road/fibre joins must be reattached from the versioned map stack when merged."
      }
    }
  ]
}
