{
  "type": "FeatureCollection",
  "schema_version": "pass9.0",
  "generated_at": "2026-08-30",
  "title": "DEM terrain profile status",
  "description": "Tracks HRDEM readiness for each pass-9 reach. All terrain-drop and hydraulic-head fields remain null.",
  "features": [
    {
      "type": "Feature",
      "id": "TERRAIN-NATASHQUAN",
      "geometry": null,
      "properties": {
        "id": "TERRAIN-NATASHQUAN",
        "name": "Natashquan River / Rivière Natashquan — terrain profile status",
        "feature_type": "dem_terrain_profile_status",
        "verification_status": "official_dem_source_verified_profile_not_extracted",
        "confidence": "not_applicable_until_flowline_and_dem_extraction",
        "source_ids": [
          "SRC-HRDEM-MOSAIC"
        ],
        "last_verified": "2026-08-30",
        "geometry_role": "terrain_profile_not_computed",
        "reach_id": "REACH-NATASHQUAN",
        "dem_source": "HRDEM Mosaic DTM preferred",
        "vertical_reference": "CGVD2013",
        "dem_coverage_verified_for_reach": false,
        "dem_extracted": false,
        "connected_flowline_ingested": false,
        "terrain_profile_completed": false,
        "terrain_drop_10km_m": null,
        "terrain_drop_25km_m": null,
        "mean_reach_slope": null,
        "min_elevation_m": null,
        "max_elevation_m": null,
        "project_gross_head_m": null,
        "project_net_head_m": null,
        "head_screening_completed": false,
        "site_ranking_allowed": false,
        "warning": "Terrain elevation drop is not project head. No elevation/head value is calculated before connected flowline geometry and a later intake/powerhouse concept exist."
      }
    },
    {
      "type": "Feature",
      "id": "TERRAIN-PETIT-MECATINA",
      "geometry": null,
      "properties": {
        "id": "TERRAIN-PETIT-MECATINA",
        "name": "Petit Mécatina River / Rivière du Petit Mécatina — terrain profile status",
        "feature_type": "dem_terrain_profile_status",
        "verification_status": "official_dem_source_verified_profile_not_extracted",
        "confidence": "not_applicable_until_flowline_and_dem_extraction",
        "source_ids": [
          "SRC-HRDEM-MOSAIC"
        ],
        "last_verified": "2026-08-30",
        "geometry_role": "terrain_profile_not_computed",
        "reach_id": "REACH-PETIT-MECATINA",
        "dem_source": "HRDEM Mosaic DTM preferred",
        "vertical_reference": "CGVD2013",
        "dem_coverage_verified_for_reach": false,
        "dem_extracted": false,
        "connected_flowline_ingested": false,
        "terrain_profile_completed": false,
        "terrain_drop_10km_m": null,
        "terrain_drop_25km_m": null,
        "mean_reach_slope": null,
        "min_elevation_m": null,
        "max_elevation_m": null,
        "project_gross_head_m": null,
        "project_net_head_m": null,
        "head_screening_completed": false,
        "site_ranking_allowed": false,
        "warning": "Terrain elevation drop is not project head. No elevation/head value is calculated before connected flowline geometry and a later intake/powerhouse concept exist."
      }
    },
    {
      "type": "Feature",
      "id": "TERRAIN-SAINT-AUGUSTIN",
      "geometry": null,
      "properties": {
        "id": "TERRAIN-SAINT-AUGUSTIN",
        "name": "Saint-Augustin River / Rivière Saint-Augustin — terrain profile status",
        "feature_type": "dem_terrain_profile_status",
        "verification_status": "official_dem_source_verified_profile_not_extracted",
        "confidence": "not_applicable_until_flowline_and_dem_extraction",
        "source_ids": [
          "SRC-HRDEM-MOSAIC"
        ],
        "last_verified": "2026-08-30",
        "geometry_role": "terrain_profile_not_computed",
        "reach_id": "REACH-SAINT-AUGUSTIN",
        "dem_source": "HRDEM Mosaic DTM preferred",
        "vertical_reference": "CGVD2013",
        "dem_coverage_verified_for_reach": false,
        "dem_extracted": false,
        "connected_flowline_ingested": false,
        "terrain_profile_completed": false,
        "terrain_drop_10km_m": null,
        "terrain_drop_25km_m": null,
        "mean_reach_slope": null,
        "min_elevation_m": null,
        "max_elevation_m": null,
        "project_gross_head_m": null,
        "project_net_head_m": null,
        "head_screening_completed": false,
        "site_ranking_allowed": false,
        "warning": "Terrain elevation drop is not project head. No elevation/head value is calculated before connected flowline geometry and a later intake/powerhouse concept exist."
      }
    },
    {
      "type": "Feature",
      "id": "TERRAIN-SAINT-PAUL",
      "geometry": null,
      "properties": {
        "id": "TERRAIN-SAINT-PAUL",
        "name": "Saint-Paul River / Rivière Saint-Paul — terrain profile status",
        "feature_type": "dem_terrain_profile_status",
        "verification_status": "official_dem_source_verified_profile_not_extracted",
        "confidence": "not_applicable_until_flowline_and_dem_extraction",
        "source_ids": [
          "SRC-HRDEM-MOSAIC"
        ],
        "last_verified": "2026-08-30",
        "geometry_role": "terrain_profile_not_computed",
        "reach_id": "REACH-SAINT-PAUL",
        "dem_source": "HRDEM Mosaic DTM preferred",
        "vertical_reference": "CGVD2013",
        "dem_coverage_verified_for_reach": false,
        "dem_extracted": false,
        "connected_flowline_ingested": false,
        "terrain_profile_completed": false,
        "terrain_drop_10km_m": null,
        "terrain_drop_25km_m": null,
        "mean_reach_slope": null,
        "min_elevation_m": null,
        "max_elevation_m": null,
        "project_gross_head_m": null,
        "project_net_head_m": null,
        "head_screening_completed": false,
        "site_ranking_allowed": false,
        "warning": "Terrain elevation drop is not project head. No elevation/head value is calculated before connected flowline geometry and a later intake/powerhouse concept exist."
      }
    },
    {
      "type": "Feature",
      "id": "TERRAIN-ETAMAMIOU",
      "geometry": null,
      "properties": {
        "id": "TERRAIN-ETAMAMIOU",
        "name": "Etamamiou River / Rivière Etamamiou — terrain profile status",
        "feature_type": "dem_terrain_profile_status",
        "verification_status": "official_dem_source_verified_profile_not_extracted",
        "confidence": "not_applicable_until_flowline_and_dem_extraction",
        "source_ids": [
          "SRC-HRDEM-MOSAIC"
        ],
        "last_verified": "2026-08-30",
        "geometry_role": "terrain_profile_not_computed",
        "reach_id": "REACH-ETAMAMIOU",
        "dem_source": "HRDEM Mosaic DTM preferred",
        "vertical_reference": "CGVD2013",
        "dem_coverage_verified_for_reach": false,
        "dem_extracted": false,
        "connected_flowline_ingested": false,
        "terrain_profile_completed": false,
        "terrain_drop_10km_m": null,
        "terrain_drop_25km_m": null,
        "mean_reach_slope": null,
        "min_elevation_m": null,
        "max_elevation_m": null,
        "project_gross_head_m": null,
        "project_net_head_m": null,
        "head_screening_completed": false,
        "site_ranking_allowed": false,
        "warning": "Terrain elevation drop is not project head. No elevation/head value is calculated before connected flowline geometry and a later intake/powerhouse concept exist."
      }
    },
    {
      "type": "Feature",
      "id": "TERRAIN-OLOMANE",
      "geometry": null,
      "properties": {
        "id": "TERRAIN-OLOMANE",
        "name": "Olomane River / Rivière Olomane — terrain profile status",
        "feature_type": "dem_terrain_profile_status",
        "verification_status": "official_dem_source_verified_profile_not_extracted",
        "confidence": "not_applicable_until_flowline_and_dem_extraction",
        "source_ids": [
          "SRC-HRDEM-MOSAIC"
        ],
        "last_verified": "2026-08-30",
        "geometry_role": "terrain_profile_not_computed",
        "reach_id": "REACH-OLOMANE",
        "dem_source": "HRDEM Mosaic DTM preferred",
        "vertical_reference": "CGVD2013",
        "dem_coverage_verified_for_reach": false,
        "dem_extracted": false,
        "connected_flowline_ingested": false,
        "terrain_profile_completed": false,
        "terrain_drop_10km_m": null,
        "terrain_drop_25km_m": null,
        "mean_reach_slope": null,
        "min_elevation_m": null,
        "max_elevation_m": null,
        "project_gross_head_m": null,
        "project_net_head_m": null,
        "head_screening_completed": false,
        "site_ranking_allowed": false,
        "warning": "Terrain elevation drop is not project head. No elevation/head value is calculated before connected flowline geometry and a later intake/powerhouse concept exist."
      }
    },
    {
      "type": "Feature",
      "id": "TERRAIN-AGUANUS",
      "geometry": null,
      "properties": {
        "id": "TERRAIN-AGUANUS",
        "name": "Aguanus River / Rivière Aguanus — terrain profile status",
        "feature_type": "dem_terrain_profile_status",
        "verification_status": "official_dem_source_verified_profile_not_extracted",
        "confidence": "not_applicable_until_flowline_and_dem_extraction",
        "source_ids": [
          "SRC-HRDEM-MOSAIC"
        ],
        "last_verified": "2026-08-30",
        "geometry_role": "terrain_profile_not_computed",
        "reach_id": "REACH-AGUANUS",
        "dem_source": "HRDEM Mosaic DTM preferred",
        "vertical_reference": "CGVD2013",
        "dem_coverage_verified_for_reach": false,
        "dem_extracted": false,
        "connected_flowline_ingested": false,
        "terrain_profile_completed": false,
        "terrain_drop_10km_m": null,
        "terrain_drop_25km_m": null,
        "mean_reach_slope": null,
        "min_elevation_m": null,
        "max_elevation_m": null,
        "project_gross_head_m": null,
        "project_net_head_m": null,
        "head_screening_completed": false,
        "site_ranking_allowed": false,
        "warning": "Terrain elevation drop is not project head. No elevation/head value is calculated before connected flowline geometry and a later intake/powerhouse concept exist."
      }
    },
    {
      "type": "Feature",
      "id": "TERRAIN-NABISIPI",
      "geometry": null,
      "properties": {
        "id": "TERRAIN-NABISIPI",
        "name": "Nabisipi River / Rivière Nabisipi — terrain profile status",
        "feature_type": "dem_terrain_profile_status",
        "verification_status": "official_dem_source_verified_profile_not_extracted",
        "confidence": "not_applicable_until_flowline_and_dem_extraction",
        "source_ids": [
          "SRC-HRDEM-MOSAIC"
        ],
        "last_verified": "2026-08-30",
        "geometry_role": "terrain_profile_not_computed",
        "reach_id": "REACH-NABISIPI",
        "dem_source": "HRDEM Mosaic DTM preferred",
        "vertical_reference": "CGVD2013",
        "dem_coverage_verified_for_reach": false,
        "dem_extracted": false,
        "connected_flowline_ingested": false,
        "terrain_profile_completed": false,
        "terrain_drop_10km_m": null,
        "terrain_drop_25km_m": null,
        "mean_reach_slope": null,
        "min_elevation_m": null,
        "max_elevation_m": null,
        "project_gross_head_m": null,
        "project_net_head_m": null,
        "head_screening_completed": false,
        "site_ranking_allowed": false,
        "warning": "Terrain elevation drop is not project head. No elevation/head value is calculated before connected flowline geometry and a later intake/powerhouse concept exist."
      }
    },
    {
      "type": "Feature",
      "id": "TERRAIN-MAGPIE",
      "geometry": null,
      "properties": {
        "id": "TERRAIN-MAGPIE",
        "name": "Magpie River / Rivière Magpie — terrain profile status",
        "feature_type": "dem_terrain_profile_status",
        "verification_status": "official_dem_source_verified_profile_not_extracted",
        "confidence": "not_applicable_until_flowline_and_dem_extraction",
        "source_ids": [
          "SRC-HRDEM-MOSAIC"
        ],
        "last_verified": "2026-08-30",
        "geometry_role": "terrain_profile_not_computed",
        "reach_id": "REACH-MAGPIE",
        "dem_source": "HRDEM Mosaic DTM preferred",
        "vertical_reference": "CGVD2013",
        "dem_coverage_verified_for_reach": false,
        "dem_extracted": false,
        "connected_flowline_ingested": false,
        "terrain_profile_completed": false,
        "terrain_drop_10km_m": null,
        "terrain_drop_25km_m": null,
        "mean_reach_slope": null,
        "min_elevation_m": null,
        "max_elevation_m": null,
        "project_gross_head_m": null,
        "project_net_head_m": null,
        "head_screening_completed": false,
        "site_ranking_allowed": false,
        "warning": "Terrain elevation drop is not project head. No elevation/head value is calculated before connected flowline geometry and a later intake/powerhouse concept exist."
      }
    },
    {
      "type": "Feature",
      "id": "TERRAIN-ROMAINE",
      "geometry": null,
      "properties": {
        "id": "TERRAIN-ROMAINE",
        "name": "Romaine River / Rivière Romaine — terrain profile status",
        "feature_type": "dem_terrain_profile_status",
        "verification_status": "official_dem_source_verified_profile_not_extracted",
        "confidence": "not_applicable_until_flowline_and_dem_extraction",
        "source_ids": [
          "SRC-HRDEM-MOSAIC"
        ],
        "last_verified": "2026-08-30",
        "geometry_role": "terrain_profile_not_computed",
        "reach_id": "REACH-ROMAINE",
        "dem_source": "HRDEM Mosaic DTM preferred",
        "vertical_reference": "CGVD2013",
        "dem_coverage_verified_for_reach": false,
        "dem_extracted": false,
        "connected_flowline_ingested": false,
        "terrain_profile_completed": false,
        "terrain_drop_10km_m": null,
        "terrain_drop_25km_m": null,
        "mean_reach_slope": null,
        "min_elevation_m": null,
        "max_elevation_m": null,
        "project_gross_head_m": null,
        "project_net_head_m": null,
        "head_screening_completed": false,
        "site_ranking_allowed": false,
        "warning": "Terrain elevation drop is not project head. No elevation/head value is calculated before connected flowline geometry and a later intake/powerhouse concept exist."
      }
    },
    {
      "type": "Feature",
      "id": "TERRAIN-NASTAPOKA",
      "geometry": null,
      "properties": {
        "id": "TERRAIN-NASTAPOKA",
        "name": "Nastapoka River / Rivière Nastapoka — terrain profile status",
        "feature_type": "dem_terrain_profile_status",
        "verification_status": "official_dem_source_verified_profile_not_extracted",
        "confidence": "not_applicable_until_flowline_and_dem_extraction",
        "source_ids": [
          "SRC-HRDEM-MOSAIC"
        ],
        "last_verified": "2026-08-30",
        "geometry_role": "terrain_profile_not_computed",
        "reach_id": "REACH-NASTAPOKA",
        "dem_source": "HRDEM Mosaic DTM preferred",
        "vertical_reference": "CGVD2013",
        "dem_coverage_verified_for_reach": false,
        "dem_extracted": false,
        "connected_flowline_ingested": false,
        "terrain_profile_completed": false,
        "terrain_drop_10km_m": null,
        "terrain_drop_25km_m": null,
        "mean_reach_slope": null,
        "min_elevation_m": null,
        "max_elevation_m": null,
        "project_gross_head_m": null,
        "project_net_head_m": null,
        "head_screening_completed": false,
        "site_ranking_allowed": false,
        "warning": "Terrain elevation drop is not project head. No elevation/head value is calculated before connected flowline geometry and a later intake/powerhouse concept exist."
      }
    },
    {
      "type": "Feature",
      "id": "TERRAIN-INNUKSUAC",
      "geometry": null,
      "properties": {
        "id": "TERRAIN-INNUKSUAC",
        "name": "Innuksuac River / Rivière Innuksuac — terrain profile status",
        "feature_type": "dem_terrain_profile_status",
        "verification_status": "official_dem_source_verified_profile_not_extracted",
        "confidence": "not_applicable_until_flowline_and_dem_extraction",
        "source_ids": [
          "SRC-HRDEM-MOSAIC"
        ],
        "last_verified": "2026-08-30",
        "geometry_role": "terrain_profile_not_computed",
        "reach_id": "REACH-INNUKSUAC",
        "dem_source": "HRDEM Mosaic DTM preferred",
        "vertical_reference": "CGVD2013",
        "dem_coverage_verified_for_reach": false,
        "dem_extracted": false,
        "connected_flowline_ingested": false,
        "terrain_profile_completed": false,
        "terrain_drop_10km_m": null,
        "terrain_drop_25km_m": null,
        "mean_reach_slope": null,
        "min_elevation_m": null,
        "max_elevation_m": null,
        "project_gross_head_m": null,
        "project_net_head_m": null,
        "head_screening_completed": false,
        "site_ranking_allowed": false,
        "warning": "Terrain elevation drop is not project head. No elevation/head value is calculated before connected flowline geometry and a later intake/powerhouse concept exist."
      }
    },
    {
      "type": "Feature",
      "id": "TERRAIN-KOGALUC",
      "geometry": null,
      "properties": {
        "id": "TERRAIN-KOGALUC",
        "name": "Kogaluc River / Rivière Kogaluc — terrain profile status",
        "feature_type": "dem_terrain_profile_status",
        "verification_status": "official_dem_source_verified_profile_not_extracted",
        "confidence": "not_applicable_until_flowline_and_dem_extraction",
        "source_ids": [
          "SRC-HRDEM-MOSAIC"
        ],
        "last_verified": "2026-08-30",
        "geometry_role": "terrain_profile_not_computed",
        "reach_id": "REACH-KOGALUC",
        "dem_source": "HRDEM Mosaic DTM preferred",
        "vertical_reference": "CGVD2013",
        "dem_coverage_verified_for_reach": false,
        "dem_extracted": false,
        "connected_flowline_ingested": false,
        "terrain_profile_completed": false,
        "terrain_drop_10km_m": null,
        "terrain_drop_25km_m": null,
        "mean_reach_slope": null,
        "min_elevation_m": null,
        "max_elevation_m": null,
        "project_gross_head_m": null,
        "project_net_head_m": null,
        "head_screening_completed": false,
        "site_ranking_allowed": false,
        "warning": "Terrain elevation drop is not project head. No elevation/head value is calculated before connected flowline geometry and a later intake/powerhouse concept exist."
      }
    },
    {
      "type": "Feature",
      "id": "TERRAIN-ARNAUD",
      "geometry": null,
      "properties": {
        "id": "TERRAIN-ARNAUD",
        "name": "Arnaud River / Rivière Arnaud (Payne) — terrain profile status",
        "feature_type": "dem_terrain_profile_status",
        "verification_status": "official_dem_source_verified_profile_not_extracted",
        "confidence": "not_applicable_until_flowline_and_dem_extraction",
        "source_ids": [
          "SRC-HRDEM-MOSAIC"
        ],
        "last_verified": "2026-08-30",
        "geometry_role": "terrain_profile_not_computed",
        "reach_id": "REACH-ARNAUD",
        "dem_source": "HRDEM Mosaic DTM preferred",
        "vertical_reference": "CGVD2013",
        "dem_coverage_verified_for_reach": false,
        "dem_extracted": false,
        "connected_flowline_ingested": false,
        "terrain_profile_completed": false,
        "terrain_drop_10km_m": null,
        "terrain_drop_25km_m": null,
        "mean_reach_slope": null,
        "min_elevation_m": null,
        "max_elevation_m": null,
        "project_gross_head_m": null,
        "project_net_head_m": null,
        "head_screening_completed": false,
        "site_ranking_allowed": false,
        "warning": "Terrain elevation drop is not project head. No elevation/head value is calculated before connected flowline geometry and a later intake/powerhouse concept exist."
      }
    },
    {
      "type": "Feature",
      "id": "TERRAIN-LEAF",
      "geometry": null,
      "properties": {
        "id": "TERRAIN-LEAF",
        "name": "Leaf River / Rivière aux Feuilles — terrain profile status",
        "feature_type": "dem_terrain_profile_status",
        "verification_status": "official_dem_source_verified_profile_not_extracted",
        "confidence": "not_applicable_until_flowline_and_dem_extraction",
        "source_ids": [
          "SRC-HRDEM-MOSAIC"
        ],
        "last_verified": "2026-08-30",
        "geometry_role": "terrain_profile_not_computed",
        "reach_id": "REACH-LEAF",
        "dem_source": "HRDEM Mosaic DTM preferred",
        "vertical_reference": "CGVD2013",
        "dem_coverage_verified_for_reach": false,
        "dem_extracted": false,
        "connected_flowline_ingested": false,
        "terrain_profile_completed": false,
        "terrain_drop_10km_m": null,
        "terrain_drop_25km_m": null,
        "mean_reach_slope": null,
        "min_elevation_m": null,
        "max_elevation_m": null,
        "project_gross_head_m": null,
        "project_net_head_m": null,
        "head_screening_completed": false,
        "site_ranking_allowed": false,
        "warning": "Terrain elevation drop is not project head. No elevation/head value is calculated before connected flowline geometry and a later intake/powerhouse concept exist."
      }
    },
    {
      "type": "Feature",
      "id": "TERRAIN-AUX-MELEZES",
      "geometry": null,
      "properties": {
        "id": "TERRAIN-AUX-MELEZES",
        "name": "Aux Mélèzes River / Rivière aux Mélèzes — terrain profile status",
        "feature_type": "dem_terrain_profile_status",
        "verification_status": "official_dem_source_verified_profile_not_extracted",
        "confidence": "not_applicable_until_flowline_and_dem_extraction",
        "source_ids": [
          "SRC-HRDEM-MOSAIC"
        ],
        "last_verified": "2026-08-30",
        "geometry_role": "terrain_profile_not_computed",
        "reach_id": "REACH-AUX-MELEZES",
        "dem_source": "HRDEM Mosaic DTM preferred",
        "vertical_reference": "CGVD2013",
        "dem_coverage_verified_for_reach": false,
        "dem_extracted": false,
        "connected_flowline_ingested": false,
        "terrain_profile_completed": false,
        "terrain_drop_10km_m": null,
        "terrain_drop_25km_m": null,
        "mean_reach_slope": null,
        "min_elevation_m": null,
        "max_elevation_m": null,
        "project_gross_head_m": null,
        "project_net_head_m": null,
        "head_screening_completed": false,
        "site_ranking_allowed": false,
        "warning": "Terrain elevation drop is not project head. No elevation/head value is calculated before connected flowline geometry and a later intake/powerhouse concept exist."
      }
    },
    {
      "type": "Feature",
      "id": "TERRAIN-GREAT-WHALE",
      "geometry": null,
      "properties": {
        "id": "TERRAIN-GREAT-WHALE",
        "name": "Great Whale River / Grande rivière de la Baleine — terrain profile status",
        "feature_type": "dem_terrain_profile_status",
        "verification_status": "official_dem_source_verified_profile_not_extracted",
        "confidence": "not_applicable_until_flowline_and_dem_extraction",
        "source_ids": [
          "SRC-HRDEM-MOSAIC"
        ],
        "last_verified": "2026-08-30",
        "geometry_role": "terrain_profile_not_computed",
        "reach_id": "REACH-GREAT-WHALE",
        "dem_source": "HRDEM Mosaic DTM preferred",
        "vertical_reference": "CGVD2013",
        "dem_coverage_verified_for_reach": false,
        "dem_extracted": false,
        "connected_flowline_ingested": false,
        "terrain_profile_completed": false,
        "terrain_drop_10km_m": null,
        "terrain_drop_25km_m": null,
        "mean_reach_slope": null,
        "min_elevation_m": null,
        "max_elevation_m": null,
        "project_gross_head_m": null,
        "project_net_head_m": null,
        "head_screening_completed": false,
        "site_ranking_allowed": false,
        "warning": "Terrain elevation drop is not project head. No elevation/head value is calculated before connected flowline geometry and a later intake/powerhouse concept exist."
      }
    },
    {
      "type": "Feature",
      "id": "TERRAIN-GEORGE",
      "geometry": null,
      "properties": {
        "id": "TERRAIN-GEORGE",
        "name": "George River / Rivière George — terrain profile status",
        "feature_type": "dem_terrain_profile_status",
        "verification_status": "official_dem_source_verified_profile_not_extracted",
        "confidence": "not_applicable_until_flowline_and_dem_extraction",
        "source_ids": [
          "SRC-HRDEM-MOSAIC"
        ],
        "last_verified": "2026-08-30",
        "geometry_role": "terrain_profile_not_computed",
        "reach_id": "REACH-GEORGE",
        "dem_source": "HRDEM Mosaic DTM preferred",
        "vertical_reference": "CGVD2013",
        "dem_coverage_verified_for_reach": false,
        "dem_extracted": false,
        "connected_flowline_ingested": false,
        "terrain_profile_completed": false,
        "terrain_drop_10km_m": null,
        "terrain_drop_25km_m": null,
        "mean_reach_slope": null,
        "min_elevation_m": null,
        "max_elevation_m": null,
        "project_gross_head_m": null,
        "project_net_head_m": null,
        "head_screening_completed": false,
        "site_ranking_allowed": false,
        "warning": "Terrain elevation drop is not project head. No elevation/head value is calculated before connected flowline geometry and a later intake/powerhouse concept exist."
      }
    },
    {
      "type": "Feature",
      "id": "TERRAIN-UGJOKTOK",
      "geometry": null,
      "properties": {
        "id": "TERRAIN-UGJOKTOK",
        "name": "Ugjoktok River — terrain profile status",
        "feature_type": "dem_terrain_profile_status",
        "verification_status": "official_dem_source_verified_profile_not_extracted",
        "confidence": "not_applicable_until_flowline_and_dem_extraction",
        "source_ids": [
          "SRC-HRDEM-MOSAIC"
        ],
        "last_verified": "2026-08-30",
        "geometry_role": "terrain_profile_not_computed",
        "reach_id": "REACH-UGJOKTOK",
        "dem_source": "HRDEM Mosaic DTM preferred",
        "vertical_reference": "CGVD2013",
        "dem_coverage_verified_for_reach": false,
        "dem_extracted": false,
        "connected_flowline_ingested": false,
        "terrain_profile_completed": false,
        "terrain_drop_10km_m": null,
        "terrain_drop_25km_m": null,
        "mean_reach_slope": null,
        "min_elevation_m": null,
        "max_elevation_m": null,
        "project_gross_head_m": null,
        "project_net_head_m": null,
        "head_screening_completed": false,
        "site_ranking_allowed": false,
        "warning": "Terrain elevation drop is not project head. No elevation/head value is calculated before connected flowline geometry and a later intake/powerhouse concept exist."
      }
    },
    {
      "type": "Feature",
      "id": "TERRAIN-KANAIRIKTOK",
      "geometry": null,
      "properties": {
        "id": "TERRAIN-KANAIRIKTOK",
        "name": "Kanairiktok River — terrain profile status",
        "feature_type": "dem_terrain_profile_status",
        "verification_status": "official_dem_source_verified_profile_not_extracted",
        "confidence": "not_applicable_until_flowline_and_dem_extraction",
        "source_ids": [
          "SRC-HRDEM-MOSAIC"
        ],
        "last_verified": "2026-08-30",
        "geometry_role": "terrain_profile_not_computed",
        "reach_id": "REACH-KANAIRIKTOK",
        "dem_source": "HRDEM Mosaic DTM preferred",
        "vertical_reference": "CGVD2013",
        "dem_coverage_verified_for_reach": false,
        "dem_extracted": false,
        "connected_flowline_ingested": false,
        "terrain_profile_completed": false,
        "terrain_drop_10km_m": null,
        "terrain_drop_25km_m": null,
        "mean_reach_slope": null,
        "min_elevation_m": null,
        "max_elevation_m": null,
        "project_gross_head_m": null,
        "project_net_head_m": null,
        "head_screening_completed": false,
        "site_ranking_allowed": false,
        "warning": "Terrain elevation drop is not project head. No elevation/head value is calculated before connected flowline geometry and a later intake/powerhouse concept exist."
      }
    },
    {
      "type": "Feature",
      "id": "TERRAIN-NASKAUPI",
      "geometry": null,
      "properties": {
        "id": "TERRAIN-NASKAUPI",
        "name": "Naskaupi River — terrain profile status",
        "feature_type": "dem_terrain_profile_status",
        "verification_status": "official_dem_source_verified_profile_not_extracted",
        "confidence": "not_applicable_until_flowline_and_dem_extraction",
        "source_ids": [
          "SRC-HRDEM-MOSAIC"
        ],
        "last_verified": "2026-08-30",
        "geometry_role": "terrain_profile_not_computed",
        "reach_id": "REACH-NASKAUPI",
        "dem_source": "HRDEM Mosaic DTM preferred",
        "vertical_reference": "CGVD2013",
        "dem_coverage_verified_for_reach": false,
        "dem_extracted": false,
        "connected_flowline_ingested": false,
        "terrain_profile_completed": false,
        "terrain_drop_10km_m": null,
        "terrain_drop_25km_m": null,
        "mean_reach_slope": null,
        "min_elevation_m": null,
        "max_elevation_m": null,
        "project_gross_head_m": null,
        "project_net_head_m": null,
        "head_screening_completed": false,
        "site_ranking_allowed": false,
        "warning": "Terrain elevation drop is not project head. No elevation/head value is calculated before connected flowline geometry and a later intake/powerhouse concept exist."
      }
    },
    {
      "type": "Feature",
      "id": "TERRAIN-MINIPI",
      "geometry": null,
      "properties": {
        "id": "TERRAIN-MINIPI",
        "name": "Minipi River — terrain profile status",
        "feature_type": "dem_terrain_profile_status",
        "verification_status": "official_dem_source_verified_profile_not_extracted",
        "confidence": "not_applicable_until_flowline_and_dem_extraction",
        "source_ids": [
          "SRC-HRDEM-MOSAIC"
        ],
        "last_verified": "2026-08-30",
        "geometry_role": "terrain_profile_not_computed",
        "reach_id": "REACH-MINIPI",
        "dem_source": "HRDEM Mosaic DTM preferred",
        "vertical_reference": "CGVD2013",
        "dem_coverage_verified_for_reach": false,
        "dem_extracted": false,
        "connected_flowline_ingested": false,
        "terrain_profile_completed": false,
        "terrain_drop_10km_m": null,
        "terrain_drop_25km_m": null,
        "mean_reach_slope": null,
        "min_elevation_m": null,
        "max_elevation_m": null,
        "project_gross_head_m": null,
        "project_net_head_m": null,
        "head_screening_completed": false,
        "site_ranking_allowed": false,
        "warning": "Terrain elevation drop is not project head. No elevation/head value is calculated before connected flowline geometry and a later intake/powerhouse concept exist."
      }
    },
    {
      "type": "Feature",
      "id": "TERRAIN-EAGLE",
      "geometry": null,
      "properties": {
        "id": "TERRAIN-EAGLE",
        "name": "Eagle River — terrain profile status",
        "feature_type": "dem_terrain_profile_status",
        "verification_status": "official_dem_source_verified_profile_not_extracted",
        "confidence": "not_applicable_until_flowline_and_dem_extraction",
        "source_ids": [
          "SRC-HRDEM-MOSAIC"
        ],
        "last_verified": "2026-08-30",
        "geometry_role": "terrain_profile_not_computed",
        "reach_id": "REACH-EAGLE",
        "dem_source": "HRDEM Mosaic DTM preferred",
        "vertical_reference": "CGVD2013",
        "dem_coverage_verified_for_reach": false,
        "dem_extracted": false,
        "connected_flowline_ingested": false,
        "terrain_profile_completed": false,
        "terrain_drop_10km_m": null,
        "terrain_drop_25km_m": null,
        "mean_reach_slope": null,
        "min_elevation_m": null,
        "max_elevation_m": null,
        "project_gross_head_m": null,
        "project_net_head_m": null,
        "head_screening_completed": false,
        "site_ranking_allowed": false,
        "warning": "Terrain elevation drop is not project head. No elevation/head value is calculated before connected flowline geometry and a later intake/powerhouse concept exist."
      }
    },
    {
      "type": "Feature",
      "id": "TERRAIN-ALEXIS",
      "geometry": null,
      "properties": {
        "id": "TERRAIN-ALEXIS",
        "name": "Alexis River — terrain profile status",
        "feature_type": "dem_terrain_profile_status",
        "verification_status": "official_dem_source_verified_profile_not_extracted",
        "confidence": "not_applicable_until_flowline_and_dem_extraction",
        "source_ids": [
          "SRC-HRDEM-MOSAIC"
        ],
        "last_verified": "2026-08-30",
        "geometry_role": "terrain_profile_not_computed",
        "reach_id": "REACH-ALEXIS",
        "dem_source": "HRDEM Mosaic DTM preferred",
        "vertical_reference": "CGVD2013",
        "dem_coverage_verified_for_reach": false,
        "dem_extracted": false,
        "connected_flowline_ingested": false,
        "terrain_profile_completed": false,
        "terrain_drop_10km_m": null,
        "terrain_drop_25km_m": null,
        "mean_reach_slope": null,
        "min_elevation_m": null,
        "max_elevation_m": null,
        "project_gross_head_m": null,
        "project_net_head_m": null,
        "head_screening_completed": false,
        "site_ranking_allowed": false,
        "warning": "Terrain elevation drop is not project head. No elevation/head value is calculated before connected flowline geometry and a later intake/powerhouse concept exist."
      }
    }
  ]
}
